{
"type": "FeatureCollection",
"name": "world_capitals_new",
"crs": { "type": "name", "properties": { "name": "urn:ogc:def:crs:OGC:1.3:CRS84" } },
"features": [
{ "type": "Feature", "properties": { "NAME": "Vatican City", "LATITUDE": 41.900012226400001, "LONGITUDE": 12.4478083889, "POP_MAX": 832, "POP_MIN": 832, "POP2015": 0.0, "NAME_EN": "Vatican City" }, "geometry": { "type": "Point", "coordinates": [ 12.453386544971766, 41.903282179960115 ] } },
{ "type": "Feature", "properties": { "NAME": "San Marino", "LATITUDE": 43.917150084500001, "LONGITUDE": 12.466670286699999, "POP_MAX": 29579, "POP_MIN": 29000, "POP2015": 0.0, "NAME_EN": "San Marino" }, "geometry": { "type": "Point", "coordinates": [ 12.441770157800141, 43.936095834768004 ] } },
{ "type": "Feature", "properties": { "NAME": "Vaduz", "LATITUDE": 47.133723774300002, "LONGITUDE": 9.5166694729099994, "POP_MAX": 36281, "POP_MIN": 5342, "POP2015": 0.0, "NAME_EN": "Vaduz" }, "geometry": { "type": "Point", "coordinates": [ 9.516669472907267, 47.133723774293571 ] } },
{ "type": "Feature", "properties": { "NAME": "Luxembourg", "LATITUDE": 49.611660379100002, "LONGITUDE": 6.1300028062300003, "POP_MAX": 107260, "POP_MIN": 76684, "POP2015": 0.0, "NAME_EN": "Luxembourg" }, "geometry": { "type": "Point", "coordinates": [ 6.130002806227083, 49.611660379121076 ] } },
{ "type": "Feature", "properties": { "NAME": "Palikir", "LATITUDE": 6.9166436960100004, "LONGITUDE": 158.149974324, "POP_MAX": 4645, "POP_MIN": 4645, "POP2015": 0.0, "NAME_EN": "Palikir" }, "geometry": { "type": "Point", "coordinates": [ 158.149974323762308, 6.916643696007725 ] } },
{ "type": "Feature", "properties": { "NAME": "Majuro", "LATITUDE": 7.1030043112200003, "LONGITUDE": 171.38000017600001, "POP_MAX": 25400, "POP_MIN": 20500, "POP2015": 0.0, "NAME_EN": "Majuro" }, "geometry": { "type": "Point", "coordinates": [ 171.380000175746545, 7.103004311216239 ] } },
{ "type": "Feature", "properties": { "NAME": "Funafuti", "LATITUDE": -8.5166519990400005, "LONGITUDE": 179.216647094, "POP_MAX": 4749, "POP_MIN": 4749, "POP2015": 0.0, "NAME_EN": "Funafuti" }, "geometry": { "type": "Point", "coordinates": [ 179.216647094028872, -8.516651999041073 ] } },
{ "type": "Feature", "properties": { "NAME": "Melekeok", "LATITUDE": 7.4873961729799996, "LONGITUDE": 134.62654846699999, "POP_MAX": 7026, "POP_MIN": 7026, "POP2015": 0.0, "NAME_EN": "Melekeok" }, "geometry": { "type": "Point", "coordinates": [ 134.626548466992176, 7.487396172977981 ] } },
{ "type": "Feature", "properties": { "NAME": "Monaco", "LATITUDE": 43.739645687900001, "LONGITUDE": 7.4069131734699996, "POP_MAX": 36371, "POP_MIN": 36371, "POP2015": 0.0, "NAME_EN": "Monaco" }, "geometry": { "type": "Point", "coordinates": [ 7.406913173465057, 43.739645687852487 ] } },
{ "type": "Feature", "properties": { "NAME": "Tarawa", "LATITUDE": 1.3381875056200001, "LONGITUDE": 173.01757082899999, "POP_MAX": 28802, "POP_MIN": 22534, "POP2015": 0.0, "NAME_EN": null }, "geometry": { "type": "Point", "coordinates": [ 173.017570828549424, 1.338187505624603 ] } },
{ "type": "Feature", "properties": { "NAME": "Moroni", "LATITUDE": -11.704157695699999, "LONGITUDE": 43.240244098700003, "POP_MAX": 128698, "POP_MIN": 42872, "POP2015": 0.0, "NAME_EN": "Moroni" }, "geometry": { "type": "Point", "coordinates": [ 43.240244098693324, -11.704157695668471 ] } },
{ "type": "Feature", "properties": { "NAME": "Andorra", "LATITUDE": 42.500001443499997, "LONGITUDE": 1.5164859605100001, "POP_MAX": 53998, "POP_MIN": 22256, "POP2015": 0.0, "NAME_EN": "Andorra la Vella" }, "geometry": { "type": "Point", "coordinates": [ 1.51648596050552, 42.500001443545898 ] } },
{ "type": "Feature", "properties": { "NAME": "Port-of-Spain", "LATITUDE": 10.6519970896, "LONGITUDE": -61.517030885399997, "POP_MAX": 294934, "POP_MIN": 49031, "POP2015": 0.0, "NAME_EN": "Port of Spain" }, "geometry": { "type": "Point", "coordinates": [ -61.517030885449742, 10.651997089577264 ] } },
{ "type": "Feature", "properties": { "NAME": "Kigali", "LATITUDE": -1.9535900686800001, "LONGITUDE": 30.0605317777, "POP_MAX": 860000, "POP_MIN": 745261, "POP2015": 947.0, "NAME_EN": "Kigali" }, "geometry": { "type": "Point", "coordinates": [ 30.058585919064114, -1.95164421006325 ] } },
{ "type": "Feature", "properties": { "NAME": "Mbabane", "LATITUDE": -26.3166507784, "LONGITUDE": 31.133334512099999, "POP_MAX": 90138, "POP_MIN": 76218, "POP2015": 0.0, "NAME_EN": "Mbabane" }, "geometry": { "type": "Point", "coordinates": [ 31.133334512056365, -26.316650778409212 ] } },
{ "type": "Feature", "properties": { "NAME": "Juba", "LATITUDE": 4.8299751982799997, "LONGITUDE": 31.580025592799998, "POP_MAX": 111975, "POP_MIN": 111975, "POP2015": 0.0, "NAME_EN": "Juba" }, "geometry": { "type": "Point", "coordinates": [ 31.580025592787308, 4.829975198277964 ] } },
{ "type": "Feature", "properties": { "NAME": "Ljubljana", "LATITUDE": 46.055288308800002, "LONGITUDE": 14.5149690335, "POP_MAX": 314807, "POP_MIN": 255115, "POP2015": 0.0, "NAME_EN": "Ljubljana" }, "geometry": { "type": "Point", "coordinates": [ 14.514969033474131, 46.055288308794502 ] } },
{ "type": "Feature", "properties": { "NAME": "Bratislava", "LATITUDE": 48.15001833, "LONGITUDE": 17.1169807522, "POP_MAX": 423737, "POP_MIN": 373687, "POP2015": 0.0, "NAME_EN": "Bratislava" }, "geometry": { "type": "Point", "coordinates": [ 17.11698075223461, 48.150018329961711 ] } },
{ "type": "Feature", "properties": { "NAME": "Doha", "LATITUDE": 25.2865560089, "LONGITUDE": 51.5329678943, "POP_MAX": 1450000, "POP_MIN": 731310, "POP2015": 0.0, "NAME_EN": "Doha" }, "geometry": { "type": "Point", "coordinates": [ 51.532967894299304, 25.286556008906587 ] } },
{ "type": "Feature", "properties": { "NAME": "Podgorica", "LATITUDE": 42.465972512900002, "LONGITUDE": 19.2663069241, "POP_MAX": 145850, "POP_MIN": 136473, "POP2015": 0.0, "NAME_EN": "Podgorica" }, "geometry": { "type": "Point", "coordinates": [ 19.266306924118226, 42.465972512881706 ] } },
{ "type": "Feature", "properties": { "NAME": "Bern", "LATITUDE": 46.916682758699999, "LONGITUDE": 7.4669754624799998, "POP_MAX": 275329, "POP_MIN": 121631, "POP2015": 0.0, "NAME_EN": "Bern" }, "geometry": { "type": "Point", "coordinates": [ 7.466975462482424, 46.916682758667719 ] } },
{ "type": "Feature", "properties": { "NAME": "Pristina", "LATITUDE": 42.6667096141, "LONGITUDE": 21.165984251600001, "POP_MAX": 465186, "POP_MIN": 198214, "POP2015": 0.0, "NAME_EN": "Prishtina" }, "geometry": { "type": "Point", "coordinates": [ 21.165984251599866, 42.666709614119384 ] } },
{ "type": "Feature", "properties": { "NAME": "Roseau", "LATITUDE": 15.3010156443, "LONGITUDE": -61.387012981799998, "POP_MAX": 23336, "POP_MIN": 16571, "POP2015": 0.0, "NAME_EN": "Roseau" }, "geometry": { "type": "Point", "coordinates": [ -61.387012981803366, 15.301015644283325 ] } },
{ "type": "Feature", "properties": { "NAME": "Djibouti", "LATITUDE": 11.5950144643, "LONGITUDE": 43.148001667099997, "POP_MAX": 923000, "POP_MIN": 604013, "POP2015": 0.0, "NAME_EN": "Djibouti" }, "geometry": { "type": "Point", "coordinates": [ 43.148001667052256, 11.595014464255485 ] } },
{ "type": "Feature", "properties": { "NAME": "Banjul", "LATITUDE": 13.4538764603, "LONGITUDE": -16.591701489199998, "POP_MAX": 43094, "POP_MIN": 34589, "POP2015": 0.0, "NAME_EN": "Banjul" }, "geometry": { "type": "Point", "coordinates": [ -16.591701489212596, 13.453876460315939 ] } },
{ "type": "Feature", "properties": { "NAME": "Skopje", "LATITUDE": 42.000006122899997, "LONGITUDE": 21.433461465099999, "POP_MAX": 494087, "POP_MIN": 474889, "POP2015": 0.0, "NAME_EN": "Skopje" }, "geometry": { "type": "Point", "coordinates": [ 21.4334614651425, 42.000006122905859 ] } },
{ "type": "Feature", "properties": { "NAME": "Bridgetown", "LATITUDE": 13.102002582800001, "LONGITUDE": -59.616526735100003, "POP_MAX": 191152, "POP_MIN": 96578, "POP2015": 0.0, "NAME_EN": "Bridgetown" }, "geometry": { "type": "Point", "coordinates": [ -59.616526735051593, 13.10200258275114 ] } },
{ "type": "Feature", "properties": { "NAME": "Bujumbura", "LATITUDE": -3.3760872203700001, "LONGITUDE": 29.360006061499998, "POP_MAX": 331700, "POP_MIN": 331700, "POP2015": 0.0, "NAME_EN": "Bujumbura" }, "geometry": { "type": "Point", "coordinates": [ 29.360006061528395, -3.376087220374643 ] } },
{ "type": "Feature", "properties": { "NAME": "Kingstown", "LATITUDE": 13.1482788279, "LONGITUDE": -61.212062420300001, "POP_MAX": 49485, "POP_MIN": 24518, "POP2015": 0.0, "NAME_EN": "Kingstown" }, "geometry": { "type": "Point", "coordinates": [ -61.212062420279324, 13.14827882786841 ] } },
{ "type": "Feature", "properties": { "NAME": "Castries", "LATITUDE": 14.001973489299999, "LONGITUDE": -61.000008180400002, "POP_MAX": 37963, "POP_MIN": 10634, "POP2015": 0.0, "NAME_EN": "Castries" }, "geometry": { "type": "Point", "coordinates": [ -61.000008180369548, 14.001973489330339 ] } },
{ "type": "Feature", "properties": { "NAME": "Basseterre", "LATITUDE": 17.302030455499999, "LONGITUDE": -62.717009319699997, "POP_MAX": 21887, "POP_MIN": 15500, "POP2015": 0.0, "NAME_EN": "Basseterre" }, "geometry": { "type": "Point", "coordinates": [ -62.717009319699343, 17.302030455489387 ] } },
{ "type": "Feature", "properties": { "NAME": "Port Louis", "LATITUDE": -20.1666385714, "LONGITUDE": 57.4999938546, "POP_MAX": 595491, "POP_MIN": 148416, "POP2015": 0.0, "NAME_EN": "Port Louis" }, "geometry": { "type": "Point", "coordinates": [ 57.499993854609727, -20.166638571353246 ] } },
{ "type": "Feature", "properties": { "NAME": "Saint George's", "LATITUDE": 12.0526334017, "LONGITUDE": -61.741643226100003, "POP_MAX": 33734, "POP_MIN": 27343, "POP2015": 0.0, "NAME_EN": "St. George's" }, "geometry": { "type": "Point", "coordinates": [ -61.741643226074757, 12.052633401720414 ] } },
{ "type": "Feature", "properties": { "NAME": "Manama", "LATITUDE": 26.236136290499999, "LONGITUDE": 50.583051715899998, "POP_MAX": 563920, "POP_MIN": 157474, "POP2015": 0.0, "NAME_EN": "Manama" }, "geometry": { "type": "Point", "coordinates": [ 50.583051715910187, 26.236136290485945 ] } },
{ "type": "Feature", "properties": { "NAME": "Saint John's", "LATITUDE": 17.118036518299999, "LONGITUDE": -61.850033815099998, "POP_MAX": 35499, "POP_MIN": 24226, "POP2015": 0.0, "NAME_EN": "St. John's" }, "geometry": { "type": "Point", "coordinates": [ -61.850033815138659, 17.118036518314113 ] } },
{ "type": "Feature", "properties": { "NAME": "Montevideo", "LATITUDE": -34.858041566200001, "LONGITUDE": -56.171052288399999, "POP_MAX": 1513000, "POP_MIN": 5324, "POP2015": 1504.0, "NAME_EN": "Montevideo" }, "geometry": { "type": "Point", "coordinates": [ -56.172998147035969, -34.856095707590725 ] } },
{ "type": "Feature", "properties": { "NAME": "Lomé", "LATITUDE": 6.1319370716600003, "LONGITUDE": 1.22275711936, "POP_MAX": 1452000, "POP_MIN": 749700, "POP2015": 1669.0, "NAME_EN": "Lomé" }, "geometry": { "type": "Point", "coordinates": [ 1.22081126074562, 6.133882930268385 ] } },
{ "type": "Feature", "properties": { "NAME": "Tunis", "LATITUDE": 36.802778136199997, "LONGITUDE": 10.1796780992, "POP_MAX": 2412500, "POP_MIN": 728453, "POP2015": 0.0, "NAME_EN": "Tunis" }, "geometry": { "type": "Point", "coordinates": [ 10.179678099212026, 36.802778136231439 ] } },
{ "type": "Feature", "properties": { "NAME": "Abu Dhabi", "LATITUDE": 24.466683572400001, "LONGITUDE": 54.366593382600001, "POP_MAX": 603492, "POP_MIN": 560230, "POP2015": 0.0, "NAME_EN": "Abu Dhabi" }, "geometry": { "type": "Point", "coordinates": [ 54.366593382591986, 24.466683572379907 ] } },
{ "type": "Feature", "properties": { "NAME": "Ashgabat", "LATITUDE": 37.949994933100001, "LONGITUDE": 58.3832991118, "POP_MAX": 727700, "POP_MIN": 577982, "POP2015": 0.0, "NAME_EN": "Ashgabat" }, "geometry": { "type": "Point", "coordinates": [ 58.383299111774647, 37.949994933110986 ] } },
{ "type": "Feature", "properties": { "NAME": "Lusaka", "LATITUDE": -15.416644267900001, "LONGITUDE": 28.283327594700001, "POP_MAX": 1328000, "POP_MIN": 1267440, "POP2015": 1421.0, "NAME_EN": "Lusaka" }, "geometry": { "type": "Point", "coordinates": [ 28.28138173611427, -15.414698409335926 ] } },
{ "type": "Feature", "properties": { "NAME": "Harare", "LATITUDE": -17.817789694399998, "LONGITUDE": 31.044709430699999, "POP_MAX": 1572000, "POP_MIN": 1542813, "POP2015": 1663.0, "NAME_EN": "Harare" }, "geometry": { "type": "Point", "coordinates": [ 31.042763572062825, -17.815843835777798 ] } },
{ "type": "Feature", "properties": { "NAME": "Dili", "LATITUDE": -8.5593884085499994, "LONGITUDE": 125.579455932, "POP_MAX": 234331, "POP_MIN": 193563, "POP2015": 0.0, "NAME_EN": "Dili" }, "geometry": { "type": "Point", "coordinates": [ 125.57945593170507, -8.559388408546454 ] } },
{ "type": "Feature", "properties": { "NAME": "Port Vila", "LATITUDE": -17.733350404, "LONGITUDE": 168.316640584, "POP_MAX": 44040, "POP_MIN": 35901, "POP2015": 0.0, "NAME_EN": "Port Vila" }, "geometry": { "type": "Point", "coordinates": [ 168.316640583568642, -17.733350404025828 ] } },
{ "type": "Feature", "properties": { "NAME": "Tegucigalpa", "LATITUDE": 14.102044900499999, "LONGITUDE": -87.2175293393, "POP_MAX": 946000, "POP_MIN": 850848, "POP2015": 1022.0, "NAME_EN": "Tegucigalpa" }, "geometry": { "type": "Point", "coordinates": [ -87.219475197941506, 14.103990759076396 ] } },
{ "type": "Feature", "properties": { "NAME": "Georgetown", "LATITUDE": 6.8019736927499999, "LONGITUDE": -58.167028647499997, "POP_MAX": 264350, "POP_MIN": 235017, "POP2015": 0.0, "NAME_EN": "Georgetown" }, "geometry": { "type": "Point", "coordinates": [ -58.167028647480606, 6.801973692752028 ] } },
{ "type": "Feature", "properties": { "NAME": "Reykjavík", "LATITUDE": 64.150023619699994, "LONGITUDE": -21.950014487200001, "POP_MAX": 166212, "POP_MIN": 113906, "POP2015": 0.0, "NAME_EN": "Reykjavík" }, "geometry": { "type": "Point", "coordinates": [ -21.950014487179544, 64.150023619739216 ] } },
{ "type": "Feature", "properties": { "NAME": "Port-au-Prince", "LATITUDE": 18.541024596100002, "LONGITUDE": -72.336034588299995, "POP_MAX": 1998000, "POP_MIN": 1234742, "POP2015": 2209.0, "NAME_EN": "Port-au-Prince" }, "geometry": { "type": "Point", "coordinates": [ -72.337980446905533, 18.542970454732369 ] } },
{ "type": "Feature", "properties": { "NAME": "Kampala", "LATITUDE": 0.31665895477, "LONGITUDE": 32.583323525700003, "POP_MAX": 1420000, "POP_MIN": 1353189, "POP2015": 1597.0, "NAME_EN": "Kampala" }, "geometry": { "type": "Point", "coordinates": [ 32.581377667121046, 0.318604813383331 ] } },
{ "type": "Feature", "properties": { "NAME": "Paramaribo", "LATITUDE": 5.8350301299199998, "LONGITUDE": -55.167030885400003, "POP_MAX": 254169, "POP_MIN": 223757, "POP2015": 0.0, "NAME_EN": "Paramaribo" }, "geometry": { "type": "Point", "coordinates": [ -55.167030885424367, 5.835030129922586 ] } },
{ "type": "Feature", "properties": { "NAME": "Niamey", "LATITUDE": 13.516705951900001, "LONGITUDE": 2.1166560451400001, "POP_MAX": 915000, "POP_MIN": 742791, "POP2015": 1027.0, "NAME_EN": "Niamey" }, "geometry": { "type": "Point", "coordinates": [ 2.114710186530374, 13.518651810506469 ] } },
{ "type": "Feature", "properties": { "NAME": "Dushanbe", "LATITUDE": 38.560035216300001, "LONGITUDE": 68.773879352700007, "POP_MAX": 1086244, "POP_MIN": 679400, "POP2015": 0.0, "NAME_EN": "Dushanbe" }, "geometry": { "type": "Point", "coordinates": [ 68.773879352701726, 38.560035216316578 ] } },
{ "type": "Feature", "properties": { "NAME": "Asunción", "LATITUDE": -25.296402975700001, "LONGITUDE": -57.641505169299997, "POP_MAX": 1870000, "POP_MIN": 11693, "POP2015": 2030.0, "NAME_EN": "Asunción" }, "geometry": { "type": "Point", "coordinates": [ -57.643451027901335, -25.294457117057675 ] } },
{ "type": "Feature", "properties": { "NAME": "Managua", "LATITUDE": 12.153016580099999, "LONGITUDE": -86.2684916603, "POP_MAX": 920000, "POP_MIN": 920000, "POP2015": 944.0, "NAME_EN": "Managua" }, "geometry": { "type": "Point", "coordinates": [ -86.27043751890119, 12.154962438756115 ] } },
{ "type": "Feature", "properties": { "NAME": "Freetown", "LATITUDE": 8.4700114124900008, "LONGITUDE": -13.2342157404, "POP_MAX": 827000, "POP_MIN": 13768, "POP2015": 894.0, "NAME_EN": "Freetown" }, "geometry": { "type": "Point", "coordinates": [ -13.236161599012746, 8.471957271098177 ] } },
{ "type": "Feature", "properties": { "NAME": "Islamabad", "LATITUDE": 33.6999959503, "LONGITUDE": 73.166634479699994, "POP_MAX": 780000, "POP_MIN": 601600, "POP2015": 851.0, "NAME_EN": "Islamabad" }, "geometry": { "type": "Point", "coordinates": [ 73.164688621059554, 33.701941808959589 ] } },
{ "type": "Feature", "properties": { "NAME": "Kathmandu", "LATITUDE": 27.7166919139, "LONGITUDE": 85.316642210799998, "POP_MAX": 895000, "POP_MIN": 895000, "POP2015": 1029.0, "NAME_EN": "Kathmandu" }, "geometry": { "type": "Point", "coordinates": [ 85.314696352227884, 27.718637772477223 ] } },
{ "type": "Feature", "properties": { "NAME": "Bloemfontein", "LATITUDE": -29.119993877399999, "LONGITUDE": 26.229912881200001, "POP_MAX": 463064, "POP_MIN": 456669, "POP2015": 0.0, "NAME_EN": "Bloemfontein" }, "geometry": { "type": "Point", "coordinates": [ 26.22991288117737, -29.119993877378704 ] } },
{ "type": "Feature", "properties": { "NAME": "Pretoria", "LATITUDE": -25.7069205538, "LONGITUDE": 28.229429075799999, "POP_MAX": 1338000, "POP_MIN": 1338000, "POP2015": 1409.0, "NAME_EN": "Pretoria" }, "geometry": { "type": "Point", "coordinates": [ 28.227483217233839, -25.704974695184433 ] } },
{ "type": "Feature", "properties": { "NAME": "Port Moresby", "LATITUDE": -9.4647078258700006, "LONGITUDE": 147.19250362099999, "POP_MAX": 283733, "POP_MIN": 251136, "POP2015": 0.0, "NAME_EN": "Port Moresby" }, "geometry": { "type": "Point", "coordinates": [ 147.192503620593584, -9.464707825867777 ] } },
{ "type": "Feature", "properties": { "NAME": "Honiara", "LATITUDE": -9.4379942950900002, "LONGITUDE": 159.94976573400001, "POP_MAX": 76328, "POP_MIN": 56298, "POP2015": 0.0, "NAME_EN": "Honiara" }, "geometry": { "type": "Point", "coordinates": [ 159.949765733605659, -9.437994295089595 ] } },
{ "type": "Feature", "properties": { "NAME": "Panama City", "LATITUDE": 8.9680171904799995, "LONGITUDE": -79.533037151800002, "POP_MAX": 1281000, "POP_MIN": 408168, "POP2015": 1379.0, "NAME_EN": "Panama City" }, "geometry": { "type": "Point", "coordinates": [ -79.53498301041077, 8.969963049094872 ] } },
{ "type": "Feature", "properties": { "NAME": "Rabat", "LATITUDE": 34.025299091599997, "LONGITUDE": -6.8361308201300002, "POP_MAX": 1705000, "POP_MIN": 1655753, "POP2015": 1793.0, "NAME_EN": "Rabat" }, "geometry": { "type": "Point", "coordinates": [ -6.83640815612614, 34.025307311072822 ] } },
{ "type": "Feature", "properties": { "NAME": "Chișinău", "LATITUDE": 47.005023619699998, "LONGITUDE": 28.857711139700001, "POP_MAX": 688134, "POP_MIN": 635994, "POP2015": 0.0, "NAME_EN": "Chișinău" }, "geometry": { "type": "Point", "coordinates": [ 28.857711139651428, 47.005023619670624 ] } },
{ "type": "Feature", "properties": { "NAME": "Maputo", "LATITUDE": -25.9552774874, "LONGITUDE": 32.5891629626, "POP_MAX": 1446000, "POP_MIN": 1191613, "POP2015": 1621.0, "NAME_EN": "Maputo" }, "geometry": { "type": "Point", "coordinates": [ 32.58721710397009, -25.953331628778983 ] } },
{ "type": "Feature", "properties": { "NAME": "Mogadishu", "LATITUDE": 2.0666813343300001, "LONGITUDE": 45.366677611100002, "POP_MAX": 1100000, "POP_MIN": 875388, "POP2015": 1500.0, "NAME_EN": "Mogadishu" }, "geometry": { "type": "Point", "coordinates": [ 45.364731752458738, 2.068627192947531 ] } },
{ "type": "Feature", "properties": { "NAME": "Muscat", "LATITUDE": 23.6133248077, "LONGITUDE": 58.593312132599998, "POP_MAX": 734697, "POP_MIN": 586861, "POP2015": 0.0, "NAME_EN": "Muscat" }, "geometry": { "type": "Point", "coordinates": [ 58.593312132608844, 23.613324807728134 ] } },
{ "type": "Feature", "properties": { "NAME": "Colombo", "LATITUDE": 6.9319657581799996, "LONGITUDE": 79.857750609299998, "POP_MAX": 217000, "POP_MIN": 217000, "POP2015": 0.0, "NAME_EN": "Colombo" }, "geometry": { "type": "Point", "coordinates": [ 79.857750609256414, 6.931965758182116 ] } },
{ "type": "Feature", "properties": { "NAME": "Ulaanbaatar", "LATITUDE": 47.916673399899999, "LONGITUDE": 106.91661576200001, "POP_MAX": 885000, "POP_MIN": 769612, "POP2015": 919.0, "NAME_EN": "Ulaanbaatar" }, "geometry": { "type": "Point", "coordinates": [ 106.914669903746528, 47.918619258560739 ] } },
{ "type": "Feature", "properties": { "NAME": "Windhoek", "LATITUDE": -22.570006084399999, "LONGITUDE": 17.083546100500001, "POP_MAX": 268132, "POP_MIN": 262796, "POP2015": 0.0, "NAME_EN": "Windhoek" }, "geometry": { "type": "Point", "coordinates": [ 17.08354610054181, -22.570006084383806 ] } },
{ "type": "Feature", "properties": { "NAME": "Abuja", "LATITUDE": 9.0833331491399996, "LONGITUDE": 7.5333280015500002, "POP_MAX": 1576000, "POP_MIN": 162135, "POP2015": 1994.0, "NAME_EN": "Abuja" }, "geometry": { "type": "Point", "coordinates": [ 7.53138214293233, 9.085279007754195 ] } },
{ "type": "Feature", "properties": { "NAME": "Bissau", "LATITUDE": 11.865023823, "LONGITUDE": -15.5983608413, "POP_MAX": 403339, "POP_MIN": 388028, "POP2015": 0.0, "NAME_EN": "Bissau" }, "geometry": { "type": "Point", "coordinates": [ -15.598360841320755, 11.865023822980561 ] } },
{ "type": "Feature", "properties": { "NAME": "Amman", "LATITUDE": 31.950025247199999, "LONGITUDE": 35.933299925500002, "POP_MAX": 1060000, "POP_MIN": 1060000, "POP2015": 1106.0, "NAME_EN": "Amman" }, "geometry": { "type": "Point", "coordinates": [ 35.931354066874121, 31.951971105827454 ] } },
{ "type": "Feature", "properties": { "NAME": "Vilnius", "LATITUDE": 54.6833663118, "LONGITUDE": 25.316635293299999, "POP_MAX": 542366, "POP_MIN": 507029, "POP2015": 0.0, "NAME_EN": "Vilnius" }, "geometry": { "type": "Point", "coordinates": [ 25.3166352932829, 54.683366311758618 ] } },
{ "type": "Feature", "properties": { "NAME": "Riga", "LATITUDE": 56.950023823199999, "LONGITUDE": 24.0999653714, "POP_MAX": 742572, "POP_MIN": 705033, "POP2015": 0.0, "NAME_EN": "Riga" }, "geometry": { "type": "Point", "coordinates": [ 24.099965371403187, 56.950023823160961 ] } },
{ "type": "Feature", "properties": { "NAME": "Bishkek", "LATITUDE": 42.8730794465, "LONGITUDE": 74.585204222499996, "POP_MAX": 837000, "POP_MIN": 804212, "POP2015": 869.0, "NAME_EN": "Bishkek" }, "geometry": { "type": "Point", "coordinates": [ 74.583258363903667, 42.875025305090105 ] } },
{ "type": "Feature", "properties": { "NAME": "Maseru", "LATITUDE": -29.3166743787, "LONGITUDE": 27.48327307, "POP_MAX": 361324, "POP_MIN": 118355, "POP2015": 0.0, "NAME_EN": "Maseru" }, "geometry": { "type": "Point", "coordinates": [ 27.483273069984477, -29.316674378681626 ] } },
{ "type": "Feature", "properties": { "NAME": "Antananarivo", "LATITUDE": -18.916637350599999, "LONGITUDE": 47.516623900100001, "POP_MAX": 1697000, "POP_MIN": 1391433, "POP2015": 1877.0, "NAME_EN": "Antananarivo" }, "geometry": { "type": "Point", "coordinates": [ 47.514678041529862, -18.914691492032148 ] } },
{ "type": "Feature", "properties": { "NAME": "Quito", "LATITUDE": -0.21498818065, "LONGITUDE": -78.500051108500003, "POP_MAX": 1701000, "POP_MIN": 1399814, "POP2015": 1846.0, "NAME_EN": "Quito" }, "geometry": { "type": "Point", "coordinates": [ -78.501996967112404, -0.213042322035562 ] } },
{ "type": "Feature", "properties": { "NAME": "San José", "LATITUDE": 9.9350124297400004, "LONGITUDE": -84.084051352700001, "POP_MAX": 1284000, "POP_MIN": 1724, "POP2015": 1374.0, "NAME_EN": "San José" }, "geometry": { "type": "Point", "coordinates": [ -84.085997211275355, 9.936958288356607 ] } },
{ "type": "Feature", "properties": { "NAME": "San Salvador", "LATITUDE": 13.7100016469, "LONGITUDE": -89.203041220800003, "POP_MAX": 1433000, "POP_MIN": 2807, "POP2015": 1520.0, "NAME_EN": "San Salvador" }, "geometry": { "type": "Point", "coordinates": [ -89.204987079459897, 13.711947505494038 ] } },
{ "type": "Feature", "properties": { "NAME": "Kingston", "LATITUDE": 17.977076623799999, "LONGITUDE": -76.767433713700001, "POP_MAX": 937700, "POP_MIN": 664973, "POP2015": 0.0, "NAME_EN": "Kingston" }, "geometry": { "type": "Point", "coordinates": [ -76.767433713669107, 17.977076623830897 ] } },
{ "type": "Feature", "properties": { "NAME": "Ndjamena", "LATITUDE": 12.1130965362, "LONGITUDE": 15.0491483141, "POP_MAX": 989000, "POP_MIN": 681387, "POP2015": 1127.0, "NAME_EN": "N'Djamena" }, "geometry": { "type": "Point", "coordinates": [ 15.047202455462298, 12.115042394810644 ] } },
{ "type": "Feature", "properties": { "NAME": "Malabo", "LATITUDE": 3.7500152780299998, "LONGITUDE": 8.7832775458200008, "POP_MAX": 155963, "POP_MIN": 155963, "POP2015": 0.0, "NAME_EN": "Malabo" }, "geometry": { "type": "Point", "coordinates": [ 8.783277545821136, 3.750015278026183 ] } },
{ "type": "Feature", "properties": { "NAME": "Asmara", "LATITUDE": 15.3333392527, "LONGITUDE": 38.933323525799999, "POP_MAX": 620802, "POP_MIN": 563930, "POP2015": 0.0, "NAME_EN": "Asmara" }, "geometry": { "type": "Point", "coordinates": [ 38.933323525759306, 15.333339252681924 ] } },
{ "type": "Feature", "properties": { "NAME": "Zagreb", "LATITUDE": 45.800006733300002, "LONGITUDE": 15.999994668199999, "POP_MAX": 722526, "POP_MIN": 698966, "POP2015": 0.0, "NAME_EN": "Zagreb" }, "geometry": { "type": "Point", "coordinates": [ 15.999994668245677, 45.800006733272539 ] } },
{ "type": "Feature", "properties": { "NAME": "Tallinn", "LATITUDE": 59.433877379499997, "LONGITUDE": 24.728040729500002, "POP_MAX": 394024, "POP_MIN": 340027, "POP2015": 0.0, "NAME_EN": "Tallinn" }, "geometry": { "type": "Point", "coordinates": [ 24.72804072947855, 59.433877379485921 ] } },
{ "type": "Feature", "properties": { "NAME": "Lilongwe", "LATITUDE": -13.9832950655, "LONGITUDE": 33.78330196, "POP_MAX": 646750, "POP_MIN": 646750, "POP2015": 0.0, "NAME_EN": "Lilongwe" }, "geometry": { "type": "Point", "coordinates": [ 33.783301959983532, -13.983295065469179 ] } },
{ "type": "Feature", "properties": { "NAME": "Guatemala", "LATITUDE": 14.621134662799999, "LONGITUDE": -90.5269655779, "POP_MAX": 1024000, "POP_MIN": 994938, "POP2015": 1104.0, "NAME_EN": "Guatemala City" }, "geometry": { "type": "Point", "coordinates": [ -90.528911436561543, 14.623080521448173 ] } },
{ "type": "Feature", "properties": { "NAME": "Libreville", "LATITUDE": 0.38538860972, "LONGITUDE": 9.45796504582, "POP_MAX": 578156, "POP_MIN": 483355, "POP2015": 0.0, "NAME_EN": "Libreville" }, "geometry": { "type": "Point", "coordinates": [ 9.457965045823698, 0.385388609718518 ] } },
{ "type": "Feature", "properties": { "NAME": "Suva", "LATITUDE": -18.133015931399999, "LONGITUDE": 178.441707315, "POP_MAX": 175399, "POP_MIN": 88271, "POP2015": 0.0, "NAME_EN": "Suva" }, "geometry": { "type": "Point", "coordinates": [ 178.441707315379858, -18.133015931371233 ] } },
{ "type": "Feature", "properties": { "NAME": "Nouakchott", "LATITUDE": 18.086427021199999, "LONGITUDE": -15.9753404149, "POP_MAX": 742144, "POP_MIN": 661400, "POP2015": 0.0, "NAME_EN": "Nouakchott" }, "geometry": { "type": "Point", "coordinates": [ -15.975340414890013, 18.086427021247516 ] } },
{ "type": "Feature", "properties": { "NAME": "Bamako", "LATITUDE": 12.650014667700001, "LONGITUDE": -8.0000391046400008, "POP_MAX": 1494000, "POP_MIN": 1297281, "POP2015": 1708.0, "NAME_EN": "Bamako" }, "geometry": { "type": "Point", "coordinates": [ -8.001984963249697, 12.651960526323251 ] } },
{ "type": "Feature", "properties": { "NAME": "Beirut", "LATITUDE": 33.871975116999998, "LONGITUDE": 35.50970821, "POP_MAX": 1846000, "POP_MIN": 1712125, "POP2015": 1941.0, "NAME_EN": "Beirut" }, "geometry": { "type": "Point", "coordinates": [ 35.507762351377664, 33.873920975626902 ] } },
{ "type": "Feature", "properties": { "NAME": "Tbilisi", "LATITUDE": 41.725009988499998, "LONGITUDE": 44.790795449599997, "POP_MAX": 1100000, "POP_MIN": 1005257, "POP2015": 1108.0, "NAME_EN": "Tbilisi" }, "geometry": { "type": "Point", "coordinates": [ 44.788849590997984, 41.726955847077591 ] } },
{ "type": "Feature", "properties": { "NAME": "Astana", "LATITUDE": 51.181125304299997, "LONGITUDE": 71.427774209500001, "POP_MAX": 345604, "POP_MIN": 325021, "POP2015": 0.0, "NAME_EN": "Astana" }, "geometry": { "type": "Point", "coordinates": [ 71.427774209483005, 51.181125304257591 ] } },
{ "type": "Feature", "properties": { "NAME": "Vientiane", "LATITUDE": 17.966692727600002, "LONGITUDE": 102.59998002, "POP_MAX": 754000, "POP_MIN": 570348, "POP2015": 0.0, "NAME_EN": "Vientiane" }, "geometry": { "type": "Point", "coordinates": [ 102.59998002015476, 17.96669272762739 ] } },
{ "type": "Feature", "properties": { "NAME": "Brazzaville", "LATITUDE": -4.2591857718100004, "LONGITUDE": 15.2846894925, "POP_MAX": 1355000, "POP_MIN": 1163890, "POP2015": 1505.0, "NAME_EN": "Brazzaville" }, "geometry": { "type": "Point", "coordinates": [ 15.282743633848668, -4.257239913197509 ] } },
{ "type": "Feature", "properties": { "NAME": "Conakry", "LATITUDE": 9.5315228464100006, "LONGITUDE": -13.6802350275, "POP_MAX": 1494000, "POP_MIN": 1494000, "POP2015": 1645.0, "NAME_EN": "Conakry" }, "geometry": { "type": "Point", "coordinates": [ -13.682180886123945, 9.533468705021789 ] } },
{ "type": "Feature", "properties": { "NAME": "Yamoussoukro", "LATITUDE": 6.81838096, "LONGITUDE": -5.27550256491, "POP_MAX": 206499, "POP_MIN": 194530, "POP2015": 0.0, "NAME_EN": "Yamoussoukro" }, "geometry": { "type": "Point", "coordinates": [ -5.275502564912301, 6.818380960004617 ] } },
{ "type": "Feature", "properties": { "NAME": "Ottawa", "LATITUDE": 45.416696796700002, "LONGITUDE": -75.700015301199997, "POP_MAX": 1145000, "POP_MIN": 812129, "POP2015": 1182.0, "NAME_EN": "Ottawa" }, "geometry": { "type": "Point", "coordinates": [ -75.701961159809514, 45.418642655360429 ] } },
{ "type": "Feature", "properties": { "NAME": "Belgrade", "LATITUDE": 44.818645445800001, "LONGITUDE": 20.4679906806, "POP_MAX": 1099000, "POP_MIN": 1099000, "POP2015": 1096.0, "NAME_EN": "Belgrade" }, "geometry": { "type": "Point", "coordinates": [ 20.466044822020535, 44.820591304446737 ] } },
{ "type": "Feature", "properties": { "NAME": "Bandar Seri Begawan", "LATITUDE": 4.8833311146199998, "LONGITUDE": 114.93328405699999, "POP_MAX": 296500, "POP_MIN": 140000, "POP2015": 0.0, "NAME_EN": "Bandar Seri Begawan" }, "geometry": { "type": "Point", "coordinates": [ 114.933284056662274, 4.883331114619239 ] } },
{ "type": "Feature", "properties": { "NAME": "Sucre", "LATITUDE": -19.040970846699999, "LONGITUDE": -65.259515626699994, "POP_MAX": 224838, "POP_MIN": 221736, "POP2015": 0.0, "NAME_EN": "Sucre" }, "geometry": { "type": "Point", "coordinates": [ -65.259515626675636, -19.040970846739469 ] } },
{ "type": "Feature", "properties": { "NAME": "Belmopan", "LATITUDE": 17.2520335072, "LONGITUDE": -88.767072999800007, "POP_MAX": 15220, "POP_MIN": 13381, "POP2015": 0.0, "NAME_EN": "Belmopan" }, "geometry": { "type": "Point", "coordinates": [ -88.767072999816548, 17.252033507246892 ] } },
{ "type": "Feature", "properties": { "NAME": "Bangui", "LATITUDE": 4.3666443063499996, "LONGITUDE": 18.558288125299999, "POP_MAX": 831925, "POP_MIN": 622771, "POP2015": 0.0, "NAME_EN": "Bangui" }, "geometry": { "type": "Point", "coordinates": [ 18.558288125287277, 4.366644306349087 ] } },
{ "type": "Feature", "properties": { "NAME": "Yaounde", "LATITUDE": 3.86670066214, "LONGITUDE": 11.516650755500001, "POP_MAX": 1611000, "POP_MIN": 1060587, "POP2015": 1787.0, "NAME_EN": "Yaounde" }, "geometry": { "type": "Point", "coordinates": [ 11.514704896854425, 3.868646520754112 ] } },
{ "type": "Feature", "properties": { "NAME": "Tirana", "LATITUDE": 41.327540709499999, "LONGITUDE": 19.818883014600001, "POP_MAX": 895350, "POP_MIN": 421286, "POP2015": 0.0, "NAME_EN": "Tirana" }, "geometry": { "type": "Point", "coordinates": [ 19.81888301461521, 41.327540709491586 ] } },
{ "type": "Feature", "properties": { "NAME": "Yerevan", "LATITUDE": 40.181150735499997, "LONGITUDE": 44.513551390400004, "POP_MAX": 1102000, "POP_MIN": 1093485, "POP2015": 1102.0, "NAME_EN": "Yerevan" }, "geometry": { "type": "Point", "coordinates": [ 44.511605531752082, 40.183096594141887 ] } },
{ "type": "Feature", "properties": { "NAME": "Baku", "LATITUDE": 40.395272032699999, "LONGITUDE": 49.862217161899999, "POP_MAX": 2122300, "POP_MIN": 1892000, "POP2015": 1931.0, "NAME_EN": "Baku" }, "geometry": { "type": "Point", "coordinates": [ 49.860271303257775, 40.397217891343018 ] } },
{ "type": "Feature", "properties": { "NAME": "Phnom Penh", "LATITUDE": 11.5500301299, "LONGITUDE": 104.91663448, "POP_MAX": 1466000, "POP_MIN": 1466000, "POP2015": 1651.0, "NAME_EN": "Phnom Penh" }, "geometry": { "type": "Point", "coordinates": [ 104.914688621186428, 11.551975988558411 ] } },
{ "type": "Feature", "properties": { "NAME": "La Paz", "LATITUDE": -16.497973613700001, "LONGITUDE": -68.149985190500004, "POP_MAX": 1590000, "POP_MIN": 812799, "POP2015": 1692.0, "NAME_EN": "La Paz" }, "geometry": { "type": "Point", "coordinates": [ -68.151931049102188, -16.496027755043372 ] } },
{ "type": "Feature", "properties": { "NAME": "Cotonou", "LATITUDE": 6.4000085641700002, "LONGITUDE": 2.5199905991799998, "POP_MAX": 762000, "POP_MIN": 690584, "POP2015": 841.0, "NAME_EN": "Cotonou" }, "geometry": { "type": "Point", "coordinates": [ 2.518044740568598, 6.401954422782467 ] } },
{ "type": "Feature", "properties": { "NAME": "Sofia", "LATITUDE": 42.683349425300001, "LONGITUDE": 23.316654010699999, "POP_MAX": 1185000, "POP_MIN": 874827, "POP2015": 1212.0, "NAME_EN": "Sofia" }, "geometry": { "type": "Point", "coordinates": [ 23.314708152110086, 42.685295283930543 ] } },
{ "type": "Feature", "properties": { "NAME": "Minsk", "LATITUDE": 53.8999774364, "LONGITUDE": 27.566627155300001, "POP_MAX": 1805000, "POP_MIN": 1577138, "POP2015": 1846.0, "NAME_EN": "Minsk" }, "geometry": { "type": "Point", "coordinates": [ 27.56468129665825, 53.901923295043105 ] } },
{ "type": "Feature", "properties": { "NAME": "Thimphu", "LATITUDE": 27.472985859200001, "LONGITUDE": 89.639014036999995, "POP_MAX": 98676, "POP_MIN": 79185, "POP2015": 0.0, "NAME_EN": "Thimphu" }, "geometry": { "type": "Point", "coordinates": [ 89.639014037029995, 27.472985859175765 ] } },
{ "type": "Feature", "properties": { "NAME": "Gaborone", "LATITUDE": -24.646313457400002, "LONGITUDE": 25.911947793300001, "POP_MAX": 208411, "POP_MIN": 159243, "POP2015": 0.0, "NAME_EN": "Gaborone" }, "geometry": { "type": "Point", "coordinates": [ 25.911947793285378, -24.646313457438907 ] } },
{ "type": "Feature", "properties": { "NAME": "Canberra", "LATITUDE": -35.283028545400001, "LONGITUDE": 149.12902624399999, "POP_MAX": 327700, "POP_MIN": 234032, "POP2015": 0.0, "NAME_EN": "Canberra" }, "geometry": { "type": "Point", "coordinates": [ 149.129026244299212, -35.283028545372076 ] } },
{ "type": "Feature", "properties": { "NAME": "Ouagadougou", "LATITUDE": 12.370315977900001, "LONGITUDE": -1.5247237563, "POP_MAX": 1149000, "POP_MIN": 835457, "POP2015": 1324.0, "NAME_EN": "Ouagadougou" }, "geometry": { "type": "Point", "coordinates": [ -1.526669614916443, 12.372261836543373 ] } },
{ "type": "Feature", "properties": { "NAME": "Sarajevo", "LATITUDE": 43.850022398999997, "LONGITUDE": 18.383001666999998, "POP_MAX": 696731, "POP_MIN": 628902, "POP2015": 0.0, "NAME_EN": "Sarajevo" }, "geometry": { "type": "Point", "coordinates": [ 18.383001666953305, 43.850022398954934 ] } },
{ "type": "Feature", "properties": { "NAME": "Naypyidaw", "LATITUDE": 19.766557026099999, "LONGITUDE": 96.118618529200006, "POP_MAX": 930000, "POP_MIN": 194824, "POP2015": 1024.0, "NAME_EN": "Naypyidaw" }, "geometry": { "type": "Point", "coordinates": [ 96.116672670630351, 19.768502884750148 ] } },
{ "type": "Feature", "properties": { "NAME": "Nukualofa", "LATITUDE": -21.138512356700002, "LONGITUDE": -175.220564478, "POP_MAX": 42620, "POP_MIN": 23658, "POP2015": 0.0, "NAME_EN": "Nuku'alofa" }, "geometry": { "type": "Point", "coordinates": [ -175.220564477616563, -21.138512356698641 ] } },
{ "type": "Feature", "properties": { "NAME": "Hargeysa", "LATITUDE": 9.5600223988199993, "LONGITUDE": 44.065310016700003, "POP_MAX": 477876, "POP_MIN": 247018, "POP2015": 0.0, "NAME_EN": "Hargeisa" }, "geometry": { "type": "Point", "coordinates": [ 44.065310016665421, 9.56002239881775 ] } },
{ "type": "Feature", "properties": { "NAME": "Victoria", "LATITUDE": -4.6166316539699999, "LONGITUDE": 55.449989785600003, "POP_MAX": 33576, "POP_MIN": 22881, "POP2015": 0.0, "NAME_EN": "Victoria" }, "geometry": { "type": "Point", "coordinates": [ 55.449989785591129, -4.6166316539734 ] } },
{ "type": "Feature", "properties": { "NAME": "São Tomé", "LATITUDE": 0.33340211882999998, "LONGITUDE": 6.73332515323, "POP_MAX": 88219, "POP_MIN": 56166, "POP2015": 0.0, "NAME_EN": "São Tomé" }, "geometry": { "type": "Point", "coordinates": [ 6.733325153234773, 0.333402118832907 ] } },
{ "type": "Feature", "properties": { "NAME": "Apia", "LATITUDE": -13.8415450424, "LONGITUDE": -171.73864160900001, "POP_MAX": 61916, "POP_MIN": 37708, "POP2015": 0.0, "NAME_EN": "Apia" }, "geometry": { "type": "Point", "coordinates": [ -171.73864160860316, -13.841545042448445 ] } },
{ "type": "Feature", "properties": { "NAME": "Valletta", "LATITUDE": 35.899732481900003, "LONGITUDE": 14.5147106513, "POP_MAX": 368250, "POP_MIN": 6966, "POP2015": 0.0, "NAME_EN": "Valletta" }, "geometry": { "type": "Point", "coordinates": [ 14.514710651312782, 35.899732481930869 ] } },
{ "type": "Feature", "properties": { "NAME": "Malé", "LATITUDE": 4.1667081898099996, "LONGITUDE": 73.499947468000002, "POP_MAX": 112927, "POP_MIN": 103693, "POP2015": 0.0, "NAME_EN": "Malé" }, "geometry": { "type": "Point", "coordinates": [ 73.499947467954996, 4.1667081898118 ] } },
{ "type": "Feature", "properties": { "NAME": "Jerusalem", "LATITUDE": 31.778407815600001, "LONGITUDE": 35.206625934599998, "POP_MAX": 1029300, "POP_MIN": 801000, "POP2015": 0.0, "NAME_EN": "Jerusalem" }, "geometry": { "type": "Point", "coordinates": [ 35.206625934598662, 31.778407815573303 ] } },
{ "type": "Feature", "properties": { "NAME": "Praia", "LATITUDE": 14.9166980173, "LONGITUDE": -23.516688885000001, "POP_MAX": 113364, "POP_MIN": 88859, "POP2015": 0.0, "NAME_EN": "Praia" }, "geometry": { "type": "Point", "coordinates": [ -23.516688884972211, 14.916698017328656 ] } },
{ "type": "Feature", "properties": { "NAME": "Nassau", "LATITUDE": 25.0833901154, "LONGITUDE": -77.350043784299999, "POP_MAX": 227940, "POP_MIN": 160966, "POP2015": 0.0, "NAME_EN": "Nassau" }, "geometry": { "type": "Point", "coordinates": [ -77.350043784276124, 25.083390115351222 ] } },
{ "type": "Feature", "properties": { "NAME": "Nicosia", "LATITUDE": 35.166676451699999, "LONGITUDE": 33.3666348864, "POP_MAX": 224300, "POP_MIN": 200452, "POP2015": 0.0, "NAME_EN": "Nicosia" }, "geometry": { "type": "Point", "coordinates": [ 33.366634886414147, 35.166676451654496 ] } },
{ "type": "Feature", "properties": { "NAME": "Hanoi", "LATITUDE": 21.033327249100001, "LONGITUDE": 105.8500142, "POP_MAX": 4378000, "POP_MIN": 1431270, "POP2015": 4723.0, "NAME_EN": "Hanoi" }, "geometry": { "type": "Point", "coordinates": [ 105.848068341242197, 21.035273107737055 ] } },
{ "type": "Feature", "properties": { "NAME": "Ankara", "LATITUDE": 39.9272385855, "LONGITUDE": 32.864391640999997, "POP_MAX": 3716000, "POP_MIN": 3307379, "POP2015": 3908.0, "NAME_EN": "Ankara" }, "geometry": { "type": "Point", "coordinates": [ 32.862445782356644, 39.929184444075474 ] } },
{ "type": "Feature", "properties": { "NAME": "Budapest", "LATITUDE": 47.500006326399998, "LONGITUDE": 19.0833206774, "POP_MAX": 1679000, "POP_MIN": 1679000, "POP2015": 1664.0, "NAME_EN": "Budapest" }, "geometry": { "type": "Point", "coordinates": [ 19.081374818759684, 47.501952184991353 ] } },
{ "type": "Feature", "properties": { "NAME": "Sanaa", "LATITUDE": 15.354733295699999, "LONGITUDE": 44.206593382599998, "POP_MAX": 2008000, "POP_MIN": 1835853, "POP2015": 2345.0, "NAME_EN": "Sana'a" }, "geometry": { "type": "Point", "coordinates": [ 44.204647523938434, 15.356679154263645 ] } },
{ "type": "Feature", "properties": { "NAME": "Bucharest", "LATITUDE": 44.433371804899998, "LONGITUDE": 26.099946654, "POP_MAX": 1942000, "POP_MIN": 1742194, "POP2015": 1947.0, "NAME_EN": "Bucharest" }, "geometry": { "type": "Point", "coordinates": [ 26.098000795350401, 44.435317663494573 ] } },
{ "type": "Feature", "properties": { "NAME": "Damascus", "LATITUDE": 33.500033995599999, "LONGITUDE": 36.299995889000002, "POP_MAX": 2466000, "POP_MIN": 2466000, "POP2015": 2675.0, "NAME_EN": "Damascus" }, "geometry": { "type": "Point", "coordinates": [ 36.298050030417073, 33.501979854206127 ] } },
{ "type": "Feature", "properties": { "NAME": "Lisbon", "LATITUDE": 38.722722877899997, "LONGITUDE": -9.1448663054899999, "POP_MAX": 2812000, "POP_MIN": 517802, "POP2015": 2890.0, "NAME_EN": "Lisbon" }, "geometry": { "type": "Point", "coordinates": [ -9.14681216410213, 38.724668736487843 ] } },
{ "type": "Feature", "properties": { "NAME": "Khartoum", "LATITUDE": 15.5880782257, "LONGITUDE": 32.534179238599997, "POP_MAX": 4754000, "POP_MIN": 1974647, "POP2015": 5185.0, "NAME_EN": "Khartoum" }, "geometry": { "type": "Point", "coordinates": [ 32.532233380011576, 15.590024084277673 ] } },
{ "type": "Feature", "properties": { "NAME": "Oslo", "LATITUDE": 59.916690286399998, "LONGITUDE": 10.749979206000001, "POP_MAX": 835000, "POP_MIN": 580000, "POP2015": 858.0, "NAME_EN": "Oslo" }, "geometry": { "type": "Point", "coordinates": [ 10.748033347372314, 59.918636145001869 ] } },
{ "type": "Feature", "properties": { "NAME": "Warsaw", "LATITUDE": 52.250000629799999, "LONGITUDE": 20.9999995511, "POP_MAX": 1707000, "POP_MIN": 1702139, "POP2015": 1724.0, "NAME_EN": "Warsaw" }, "geometry": { "type": "Point", "coordinates": [ 20.998053692465305, 52.251946488395561 ] } },
{ "type": "Feature", "properties": { "NAME": "Pyongyang", "LATITUDE": 39.019438699399998, "LONGITUDE": 125.75469071400001, "POP_MAX": 3300000, "POP_MIN": 2498797, "POP2015": 3346.0, "NAME_EN": "Pyongyang" }, "geometry": { "type": "Point", "coordinates": [ 125.752744854993921, 39.021384558004343 ] } },
{ "type": "Feature", "properties": { "NAME": "Dar es Salaam", "LATITUDE": -6.8000125947400001, "LONGITUDE": 39.268341836300003, "POP_MAX": 2930000, "POP_MIN": 2698652, "POP2015": 3319.0, "NAME_EN": "Dar es Salaam" }, "geometry": { "type": "Point", "coordinates": [ 39.266395977694572, -6.798066736124383 ] } },
{ "type": "Feature", "properties": { "NAME": "Dublin", "LATITUDE": 53.333061135999998, "LONGITUDE": -6.2489056817800002, "POP_MAX": 1059000, "POP_MIN": 968976, "POP2015": 1098.0, "NAME_EN": "Dublin" }, "geometry": { "type": "Point", "coordinates": [ -6.250851540391068, 53.335006994584944 ] } },
{ "type": "Feature", "properties": { "NAME": "Monrovia", "LATITUDE": 6.3105566598699996, "LONGITUDE": -10.8047516291, "POP_MAX": 1041000, "POP_MIN": 785662, "POP2015": 1185.0, "NAME_EN": "Monrovia" }, "geometry": { "type": "Point", "coordinates": [ -10.799660436775923, 6.314581647160139 ] } },
{ "type": "Feature", "properties": { "NAME": "Kuala Lumpur", "LATITUDE": 3.1666658720999998, "LONGITUDE": 101.69998327499999, "POP_MAX": 1448000, "POP_MIN": 1448000, "POP2015": 1519.0, "NAME_EN": "Kuala Lumpur" }, "geometry": { "type": "Point", "coordinates": [ 101.698037416746445, 3.168611730712371 ] } },
{ "type": "Feature", "properties": { "NAME": "Havana", "LATITUDE": 23.131958840900001, "LONGITUDE": -82.364182171300001, "POP_MAX": 2174000, "POP_MIN": 1990917, "POP2015": 2159.0, "NAME_EN": "Havana" }, "geometry": { "type": "Point", "coordinates": [ -82.366128029953302, 23.1339046995422 ] } },
{ "type": "Feature", "properties": { "NAME": "Prague", "LATITUDE": 50.083337014900003, "LONGITUDE": 14.465979775699999, "POP_MAX": 1162000, "POP_MIN": 2087, "POP2015": 1160.0, "NAME_EN": "Prague" }, "geometry": { "type": "Point", "coordinates": [ 14.464033917048539, 50.08528287347832 ] } },
{ "type": "Feature", "properties": { "NAME": "Kuwait", "LATITUDE": 29.36971763, "LONGITUDE": 47.978301146200003, "POP_MAX": 2063000, "POP_MIN": 60064, "POP2015": 2305.0, "NAME_EN": "Kuwait City" }, "geometry": { "type": "Point", "coordinates": [ 47.976355287625267, 29.371663488629565 ] } },
{ "type": "Feature", "properties": { "NAME": "Santo Domingo", "LATITUDE": 18.470072854600001, "LONGITUDE": -69.900085084699995, "POP_MAX": 2154000, "POP_MIN": 2873, "POP2015": 2298.0, "NAME_EN": "Santo Domingo" }, "geometry": { "type": "Point", "coordinates": [ -69.902030943315026, 18.472018713195382 ] } },
{ "type": "Feature", "properties": { "NAME": "Accra", "LATITUDE": 5.5500346058299996, "LONGITUDE": -0.21671574035, "POP_MAX": 2121000, "POP_MIN": 1963264, "POP2015": 2332.0, "NAME_EN": "Accra" }, "geometry": { "type": "Point", "coordinates": [ -0.218661598960693, 5.551980464445933 ] } },
{ "type": "Feature", "properties": { "NAME": "Tripoli", "LATITUDE": 32.892500019400003, "LONGITUDE": 13.180011758099999, "POP_MAX": 2189000, "POP_MIN": 229398, "POP2015": 2322.0, "NAME_EN": "Tripoli" }, "geometry": { "type": "Point", "coordinates": [ 13.180011758078194, 32.89250001935369 ] } },
{ "type": "Feature", "properties": { "NAME": "Helsinki", "LATITUDE": 60.175563374, "LONGITUDE": 24.934126341500001, "POP_MAX": 1115000, "POP_MIN": 558457, "POP2015": 1139.0, "NAME_EN": "Helsinki" }, "geometry": { "type": "Point", "coordinates": [ 24.932180482845581, 60.17750923256807 ] } },
{ "type": "Feature", "properties": { "NAME": "København", "LATITUDE": 55.678564190400003, "LONGITUDE": 12.5634857473, "POP_MAX": 1085000, "POP_MIN": 1085000, "POP2015": 1087.0, "NAME_EN": "Copenhagen" }, "geometry": { "type": "Point", "coordinates": [ 12.561539888703294, 55.680510049025941 ] } },
{ "type": "Feature", "properties": { "NAME": "Abidjan", "LATITUDE": 5.3199969674899998, "LONGITUDE": -4.0400482598899998, "POP_MAX": 3802000, "POP_MIN": 3190395, "POP2015": 4175.0, "NAME_EN": "Abidjan" }, "geometry": { "type": "Point", "coordinates": [ -4.041994118507091, 5.321942826098564 ] } },
{ "type": "Feature", "properties": { "NAME": "Brasília", "LATITUDE": -15.7833402315, "LONGITUDE": -47.916052288400003, "POP_MAX": 3716996, "POP_MIN": 2562963, "POP2015": 3938.0, "NAME_EN": "Brasília" }, "geometry": { "type": "Point", "coordinates": [ -47.917998147003061, -15.781394372878992 ] } },
{ "type": "Feature", "properties": { "NAME": "Brussels", "LATITUDE": 50.833317076699998, "LONGITUDE": 4.3333166082999997, "POP_MAX": 1743000, "POP_MIN": 1019022, "POP2015": 1744.0, "NAME_EN": "Brussels" }, "geometry": { "type": "Point", "coordinates": [ 4.33137074969045, 50.83526293533032 ] } },
{ "type": "Feature", "properties": { "NAME": "Dhaka", "LATITUDE": 23.723059711699999, "LONGITUDE": 90.408579466700004, "POP_MAX": 12797394, "POP_MIN": 7000940, "POP2015": 14796.0, "NAME_EN": "Dhaka" }, "geometry": { "type": "Point", "coordinates": [ 90.406633608107541, 23.725005570312817 ] } },
{ "type": "Feature", "properties": { "NAME": "Luanda", "LATITUDE": -8.8382861136299997, "LONGITUDE": 13.2344270413, "POP_MAX": 5172900, "POP_MIN": 1951272, "POP2015": 4775.0, "NAME_EN": "Luanda" }, "geometry": { "type": "Point", "coordinates": [ 13.23248118266855, -8.836340255012658 ] } },
{ "type": "Feature", "properties": { "NAME": "Algiers", "LATITUDE": 36.763064798000002, "LONGITUDE": 3.05055252952, "POP_MAX": 3354000, "POP_MIN": 1977663, "POP2015": 3574.0, "NAME_EN": "Algiers" }, "geometry": { "type": "Point", "coordinates": [ 3.048606670909237, 36.765010656628135 ] } },
{ "type": "Feature", "properties": { "NAME": "Rangoon", "LATITUDE": 16.783354104600001, "LONGITUDE": 96.166677611300003, "POP_MAX": 4088000, "POP_MIN": 3301820, "POP2015": 4348.0, "NAME_EN": "Yangon" }, "geometry": { "type": "Point", "coordinates": [ 96.164731752661851, 16.785299963188777 ] } },
{ "type": "Feature", "properties": { "NAME": "Caracas", "LATITUDE": 10.500998554400001, "LONGITUDE": -66.917037192400002, "POP_MAX": 2985000, "POP_MIN": 1815679, "POP2015": 3098.0, "NAME_EN": "Caracas" }, "geometry": { "type": "Point", "coordinates": [ -66.918983051050418, 10.502944413033333 ] } },
{ "type": "Feature", "properties": { "NAME": "Kiev", "LATITUDE": 50.433367329, "LONGITUDE": 30.5166279691, "POP_MAX": 2709000, "POP_MIN": 1662508, "POP2015": 2748.0, "NAME_EN": "Kiev" }, "geometry": { "type": "Point", "coordinates": [ 30.514682110472165, 50.435313187607221 ] } },
{ "type": "Feature", "properties": { "NAME": "Tashkent", "LATITUDE": 41.311701882999998, "LONGITUDE": 69.294932819500005, "POP_MAX": 2184000, "POP_MIN": 1978028, "POP2015": 2247.0, "NAME_EN": "Tashkent" }, "geometry": { "type": "Point", "coordinates": [ 69.292986960887788, 41.313647741607213 ] } },
{ "type": "Feature", "properties": { "NAME": "Madrid", "LATITUDE": 40.400026264499999, "LONGITUDE": -3.683351686, "POP_MAX": 5567000, "POP_MIN": 50437, "POP2015": 5764.0, "NAME_EN": "Madrid" }, "geometry": { "type": "Point", "coordinates": [ -3.685297544612524, 40.401972123113808 ] } },
{ "type": "Feature", "properties": { "NAME": "Stockholm", "LATITUDE": 59.350759954300003, "LONGITUDE": 18.0973347328, "POP_MAX": 1264000, "POP_MIN": 1253309, "POP2015": 1285.0, "NAME_EN": "Stockholm" }, "geometry": { "type": "Point", "coordinates": [ 18.095388874180912, 59.35270581286585 ] } },
{ "type": "Feature", "properties": { "NAME": "Bangkok", "LATITUDE": 13.7499992055, "LONGITUDE": 100.516644652, "POP_MAX": 6704000, "POP_MIN": 5104476, "POP2015": 6918.0, "NAME_EN": "Bangkok" }, "geometry": { "type": "Point", "coordinates": [ 100.51469879369489, 13.751945064087977 ] } },
{ "type": "Feature", "properties": { "NAME": "Lima", "LATITUDE": -12.048012676100001, "LONGITUDE": -77.050062094799998, "POP_MAX": 8012000, "POP_MIN": 6758234, "POP2015": 8375.0, "NAME_EN": "Lima" }, "geometry": { "type": "Point", "coordinates": [ -77.052007953434725, -12.046066817525571 ] } },
{ "type": "Feature", "properties": { "NAME": "Dakar", "LATITUDE": 14.715831725, "LONGITUDE": -17.473130128400001, "POP_MAX": 2604000, "POP_MIN": 2476400, "POP2015": 2856.0, "NAME_EN": "Dakar" }, "geometry": { "type": "Point", "coordinates": [ -17.475075987050559, 14.717777583623274 ] } },
{ "type": "Feature", "properties": { "NAME": "Johannesburg", "LATITUDE": -26.17004474, "LONGITUDE": 28.030009723599999, "POP_MAX": 3435000, "POP_MIN": 2026469, "POP2015": 3618.0, "NAME_EN": "Johannesburg" }, "geometry": { "type": "Point", "coordinates": [ 28.028063865019476, -26.16809888138414 ] } },
{ "type": "Feature", "properties": { "NAME": "Amsterdam", "LATITUDE": 52.349968688099999, "LONGITUDE": 4.9166401760099996, "POP_MAX": 1031000, "POP_MIN": 741636, "POP2015": 1044.0, "NAME_EN": "Amsterdam" }, "geometry": { "type": "Point", "coordinates": [ 4.914694317400972, 52.351914546664432 ] } },
{ "type": "Feature", "properties": { "NAME": "Seoul", "LATITUDE": 37.5663490998, "LONGITUDE": 126.999730997, "POP_MAX": 9796000, "POP_MIN": 9796000, "POP2015": 9762.0, "NAME_EN": "Seoul" }, "geometry": { "type": "Point", "coordinates": [ 126.997785138201948, 37.568294958388947 ] } },
{ "type": "Feature", "properties": { "NAME": "Manila", "LATITUDE": 14.604158954800001, "LONGITUDE": 120.982217162, "POP_MAX": 11100000, "POP_MIN": 3077575, "POP2015": 11662.0, "NAME_EN": "Manila" }, "geometry": { "type": "Point", "coordinates": [ 120.980271303542395, 14.606104813440538 ] } },
{ "type": "Feature", "properties": { "NAME": "Berlin", "LATITUDE": 52.521818663600001, "LONGITUDE": 13.4015486233, "POP_MAX": 3406000, "POP_MIN": 3094014, "POP2015": 3423.0, "NAME_EN": "Berlin" }, "geometry": { "type": "Point", "coordinates": [ 13.399602764700546, 52.523764522251156 ] } },
{ "type": "Feature", "properties": { "NAME": "Kinshasa", "LATITUDE": -4.3297241018900001, "LONGITUDE": 15.3149718818, "POP_MAX": 7843000, "POP_MIN": 5565703, "POP2015": 9052.0, "NAME_EN": "Kinshasa" }, "geometry": { "type": "Point", "coordinates": [ 15.313026023171744, -4.327778243275986 ] } },
{ "type": "Feature", "properties": { "NAME": "New Delhi", "LATITUDE": 28.600023009200001, "LONGITUDE": 77.1999800201, "POP_MAX": 317797, "POP_MIN": 317797, "POP2015": 0.0, "NAME_EN": "New Delhi" }, "geometry": { "type": "Point", "coordinates": [ 77.199980020053033, 28.600023009245433 ] } },
{ "type": "Feature", "properties": { "NAME": "Athens", "LATITUDE": 37.983326231900001, "LONGITUDE": 23.733321084300002, "POP_MAX": 3242000, "POP_MIN": 729137, "POP2015": 3256.0, "NAME_EN": "Athens" }, "geometry": { "type": "Point", "coordinates": [ 23.731375225679358, 37.985272090552257 ] } },
{ "type": "Feature", "properties": { "NAME": "Baghdad", "LATITUDE": 33.338648497500003, "LONGITUDE": 44.393868773199998, "POP_MAX": 5054000, "POP_MIN": 5054000, "POP2015": 5891.0, "NAME_EN": "Baghdad" }, "geometry": { "type": "Point", "coordinates": [ 44.391922914564134, 33.340594356158647 ] } },
{ "type": "Feature", "properties": { "NAME": "Addis Ababa", "LATITUDE": 9.03331036268, "LONGITUDE": 38.700004434, "POP_MAX": 3100000, "POP_MIN": 2757729, "POP2015": 3453.0, "NAME_EN": "Addis Ababa" }, "geometry": { "type": "Point", "coordinates": [ 38.698058575348682, 9.035256221295754 ] } },
{ "type": "Feature", "properties": { "NAME": "Tehran", "LATITUDE": 35.671942768400001, "LONGITUDE": 51.424344033600001, "POP_MAX": 7873000, "POP_MIN": 7153309, "POP2015": 8221.0, "NAME_EN": "Tehran" }, "geometry": { "type": "Point", "coordinates": [ 51.422398175008993, 35.673888627001304 ] } },
{ "type": "Feature", "properties": { "NAME": "Buenos Aires", "LATITUDE": -34.602501608499999, "LONGITUDE": -58.397531373699998, "POP_MAX": 12795000, "POP_MIN": 10929146, "POP2015": 13089.0, "NAME_EN": "Buenos Aires" }, "geometry": { "type": "Point", "coordinates": [ -58.399477232331435, -34.600555749907414 ] } },
{ "type": "Feature", "properties": { "NAME": "Kabul", "LATITUDE": 34.516690286299998, "LONGITUDE": 69.183260049300003, "POP_MAX": 3277000, "POP_MIN": 3043532, "POP2015": 3768.0, "NAME_EN": "Kabul" }, "geometry": { "type": "Point", "coordinates": [ 69.181314190705052, 34.518636144900313 ] } },
{ "type": "Feature", "properties": { "NAME": "Vienna", "LATITUDE": 48.200015278199999, "LONGITUDE": 16.366638955399999, "POP_MAX": 2400000, "POP_MIN": 1731000, "POP2015": 2385.0, "NAME_EN": "Vienna" }, "geometry": { "type": "Point", "coordinates": [ 16.364693096743736, 48.201961136816863 ] } },
{ "type": "Feature", "properties": { "NAME": "Taipei", "LATITUDE": 25.03583333333, "LONGITUDE": 121.56833333333, "POP_MAX": 6900273, "POP_MIN": 2618772, "POP2015": 2651.0, "NAME_EN": "Taipei" }, "geometry": { "type": "Point", "coordinates": [ 121.568333333333001, 25.035833333333301 ] } },
{ "type": "Feature", "properties": { "NAME": "Washington, D.C.", "LATITUDE": 38.899549376499998, "LONGITUDE": -77.009418580800002, "POP_MAX": 4338000, "POP_MIN": 552433, "POP2015": 4464.0, "NAME_EN": "Washington, D.C." }, "geometry": { "type": "Point", "coordinates": [ -77.011364439437159, 38.901495235087054 ] } },
{ "type": "Feature", "properties": { "NAME": "London", "LATITUDE": 51.499994729699999, "LONGITUDE": -0.11672184386, "POP_MAX": 8567000, "POP_MIN": 7421209, "POP2015": 8607.0, "NAME_EN": "London" }, "geometry": { "type": "Point", "coordinates": [ -0.118667702475932, 51.5019405883275 ] } },
{ "type": "Feature", "properties": { "NAME": "Riyadh", "LATITUDE": 24.640833149199999, "LONGITUDE": 46.772741657300003, "POP_MAX": 4465000, "POP_MIN": 4205961, "POP2015": 4856.0, "NAME_EN": "Riyadh" }, "geometry": { "type": "Point", "coordinates": [ 46.770795798688255, 24.642779007816443 ] } },
{ "type": "Feature", "properties": { "NAME": "Cape Town", "LATITUDE": -33.9200109672, "LONGITUDE": 18.434988157799999, "POP_MAX": 3215000, "POP_MIN": 2432858, "POP2015": 3357.0, "NAME_EN": "Cape Town" }, "geometry": { "type": "Point", "coordinates": [ 18.433042299226031, -33.918065108628753 ] } },
{ "type": "Feature", "properties": { "NAME": "Moscow", "LATITUDE": 55.7521641226, "LONGITUDE": 37.615522825900001, "POP_MAX": 10452000, "POP_MIN": 10452000, "POP2015": 10495.0, "NAME_EN": "Moscow" }, "geometry": { "type": "Point", "coordinates": [ 37.613576967271399, 55.754109981248178 ] } },
{ "type": "Feature", "properties": { "NAME": "Mexico City", "LATITUDE": 19.442442442800001, "LONGITUDE": -99.130988201700006, "POP_MAX": 19028000, "POP_MIN": 10811002, "POP2015": 19485.0, "NAME_EN": "Mexico City" }, "geometry": { "type": "Point", "coordinates": [ -99.132934060293906, 19.444388301415472 ] } },
{ "type": "Feature", "properties": { "NAME": "Rome", "LATITUDE": 41.895955626499997, "LONGITUDE": 12.4832584215, "POP_MAX": 3339000, "POP_MIN": 35452, "POP2015": 3333.0, "NAME_EN": "Rome" }, "geometry": { "type": "Point", "coordinates": [ 12.481312562873995, 41.897901485098942 ] } },
{ "type": "Feature", "properties": { "NAME": "Beijing", "LATITUDE": 39.928892231299997, "LONGITUDE": 116.388285684, "POP_MAX": 11106000, "POP_MIN": 7480601, "POP2015": 11741.0, "NAME_EN": "Beijing" }, "geometry": { "type": "Point", "coordinates": [ 116.386339825659434, 39.930838089909059 ] } },
{ "type": "Feature", "properties": { "NAME": "Nairobi", "LATITUDE": -1.28334674185, "LONGITUDE": 36.8166568591, "POP_MAX": 3010000, "POP_MIN": 2750547, "POP2015": 3363.0, "NAME_EN": "Nairobi" }, "geometry": { "type": "Point", "coordinates": [ 36.814711000471448, -1.281400883237779 ] } },
{ "type": "Feature", "properties": { "NAME": "Jakarta", "LATITUDE": -6.1744177054099998, "LONGITUDE": 106.829437621, "POP_MAX": 9125000, "POP_MIN": 8540121, "POP2015": 9703.0, "NAME_EN": "Jakarta" }, "geometry": { "type": "Point", "coordinates": [ 106.827491762470117, -6.172471846798885 ] } },
{ "type": "Feature", "properties": { "NAME": "Bogota", "LATITUDE": 4.5964235625300001, "LONGITUDE": -74.083343955199993, "POP_MAX": 7772000, "POP_MIN": 6333661, "POP2015": 8320.0, "NAME_EN": "Bogota" }, "geometry": { "type": "Point", "coordinates": [ -74.085289813774409, 4.598369421147822 ] } },
{ "type": "Feature", "properties": { "NAME": "Cairo", "LATITUDE": 30.049960346500001, "LONGITUDE": 31.249968219700001, "POP_MAX": 11893000, "POP_MIN": 7734614, "POP2015": 12503.0, "NAME_EN": "Cairo" }, "geometry": { "type": "Point", "coordinates": [ 31.248022361126118, 30.051906205103705 ] } },
{ "type": "Feature", "properties": { "NAME": "Tokyo", "LATITUDE": 35.685016905799998, "LONGITUDE": 139.75140742900001, "POP_MAX": 35676000, "POP_MIN": 8336599, "POP2015": 36094.0, "NAME_EN": "Tokyo" }, "geometry": { "type": "Point", "coordinates": [ 139.749461570544668, 35.686962764371174 ] } },
{ "type": "Feature", "properties": { "NAME": "Paris", "LATITUDE": 48.866692931199999, "LONGITUDE": 2.3333353257399998, "POP_MAX": 9904000, "POP_MIN": 11177, "POP2015": 9958.0, "NAME_EN": "Paris" }, "geometry": { "type": "Point", "coordinates": [ 2.33138946713035, 48.868638789814611 ] } },
{ "type": "Feature", "properties": { "NAME": "Santiago", "LATITUDE": -33.4500138155, "LONGITUDE": -70.667040854600003, "POP_MAX": 5720000, "POP_MIN": 46611, "POP2015": 5879.0, "NAME_EN": "Santiago" }, "geometry": { "type": "Point", "coordinates": [ -70.668986713174831, -33.448067956934096 ] } },
{ "type": "Feature", "properties": { "NAME": "Singapore", "LATITUDE": 1.2930334664900001, "LONGITUDE": 103.855820678, "POP_MAX": 5183700, "POP_MIN": 3289529, "POP2015": 4592.0, "NAME_EN": "Singapore" }, "geometry": { "type": "Point", "coordinates": [ 103.853874819099019, 1.294979325105942 ] } },
{ "type": "Feature", "properties": { "NAME": "Wellington", "LATITUDE": -41.299987853689998, "LONGITUDE": 174.78326585927999, "POP_MAX": 393400, "POP_MIN": 393400, "POP2015": 0.0, "NAME_EN": "Wellington" }, "geometry": { "type": "Point", "coordinates": [ 174.783265859281897, -41.299987853691732 ] } }
]
}
