{
"type": "FeatureCollection",
"name": "antarctica",
"crs": { "type": "name", "properties": { "name": "urn:ogc:def:crs:OGC:1.3:CRS84" } },
"features": [
{ "type": "Feature", "properties": { "LATITUDE": -62.173886691980002, "LONGITUDE": -58.86386407234, "POP_MAX": 60, "NAME_EN": "Artigas Base" }, "geometry": { "type": "MultiPoint", "coordinates": [ [ -58.863864072339908, -62.17388669198187 ] ] } },
{ "type": "Feature", "properties": { "LATITUDE": -54.280576966700004, "LONGITUDE": -36.507988933900002, "POP_MAX": 99, "NAME_EN": "Grytviken" }, "geometry": { "type": "MultiPoint", "coordinates": [ [ -36.507988933852346, -54.280576966672072 ] ] } },
{ "type": "Feature", "properties": { "LATITUDE": -62.499506816999997, "LONGITUDE": -59.683318523799997, "POP_MAX": 41, "NAME_EN": "Captain Arturo Prat Base" }, "geometry": { "type": "MultiPoint", "coordinates": [ [ -59.683318523788728, -62.499506816965379 ] ] } },
{ "type": "Feature", "properties": { "LATITUDE": -64.232889385299998, "LONGITUDE": -56.650015301099998, "POP_MAX": 150, "NAME_EN": "Marambio Base" }, "geometry": { "type": "MultiPoint", "coordinates": [ [ -56.650015301120391, -64.232889385331646 ] ] } },
{ "type": "Feature", "properties": { "LATITUDE": -74.619192588199994, "LONGITUDE": 164.21902706200001, "POP_MAX": 80, "NAME_EN": "Zucchelli Station" }, "geometry": { "type": "MultiPoint", "coordinates": [ [ 164.219027061622114, -74.619192588181591 ] ] } },
{ "type": "Feature", "properties": { "LATITUDE": -62.182743574600003, "LONGITUDE": -58.907652329900003, "POP_MAX": 150, "NAME_EN": "Base Presidente Eduardo Frei Montalva" }, "geometry": { "type": "MultiPoint", "coordinates": [ [ -58.907652329945108, -62.182743574638778 ] ] } },
{ "type": "Feature", "properties": { "LATITUDE": -62.224143857400001, "LONGITUDE": -58.650475991199997, "POP_MAX": 60, "NAME_EN": "Carlini Station" }, "geometry": { "type": "MultiPoint", "coordinates": [ [ -58.650475991201176, -62.224143857363856 ] ] } },
{ "type": "Feature", "properties": { "LATITUDE": -62.224853397399997, "LONGITUDE": -58.771598764499998, "POP_MAX": 90, "NAME_EN": "King Sejong Station" }, "geometry": { "type": "MultiPoint", "coordinates": [ [ -58.771598764485134, -62.224853397412858 ] ] } },
{ "type": "Feature", "properties": { "LATITUDE": -62.216319968000001, "LONGITUDE": -58.966695598999998, "POP_MAX": 40, "NAME_EN": "Great Wall Station" }, "geometry": { "type": "MultiPoint", "coordinates": [ [ -58.966695598981175, -62.216319968005848 ] ] } },
{ "type": "Feature", "properties": { "LATITUDE": -62.194962507, "LONGITUDE": -58.952665818900002, "POP_MAX": 20, "NAME_EN": null }, "geometry": { "type": "MultiPoint", "coordinates": [ [ -58.952665818930484, -62.194962507007347 ] ] } },
{ "type": "Feature", "properties": { "LATITUDE": -61.999589010999998, "LONGITUDE": -57.999984580099998, "POP_MAX": 6, "NAME_EN": null }, "geometry": { "type": "MultiPoint", "coordinates": [ [ -57.999984580097191, -61.999589010973807 ] ] } },
{ "type": "Feature", "properties": { "LATITUDE": -77.846938187500001, "LONGITUDE": 166.74910234699999, "POP_MAX": 85, "NAME_EN": "Scott Base" }, "geometry": { "type": "MultiPoint", "coordinates": [ [ 166.749102346509176, -77.846938187453304 ] ] } },
{ "type": "Feature", "properties": { "LATITUDE": -77.732282389199995, "LONGITUDE": 166.86941574599999, "POP_MAX": 1000, "NAME_EN": "McMurdo Station" }, "geometry": { "type": "MultiPoint", "coordinates": [ [ 166.869415745536571, -77.732282389206603 ] ] } },
{ "type": "Feature", "properties": { "LATITUDE": -69.434062991800005, "LONGITUDE": 76.339298081400003, "POP_MAX": 60, "NAME_EN": "Zhongshan Station" }, "geometry": { "type": "MultiPoint", "coordinates": [ [ 76.339298081438301, -69.434062991777068 ] ] } },
{ "type": "Feature", "properties": { "LATITUDE": -78.466284160800001, "LONGITUDE": 106.800033731, "POP_MAX": 25, "NAME_EN": "Vostok Station" }, "geometry": { "type": "MultiPoint", "coordinates": [ [ 106.800033731109011, -78.466284160779196 ] ] } },
{ "type": "Feature", "properties": { "LATITUDE": -68.777674389300003, "LONGITUDE": 78.140735089399996, "POP_MAX": 70, "NAME_EN": "Davis Station" }, "geometry": { "type": "MultiPoint", "coordinates": [ [ 78.14073508941965, -68.777674389290212 ] ] } },
{ "type": "Feature", "properties": { "LATITUDE": -74.666309388599998, "LONGITUDE": 124.167035684, "POP_MAX": 30, "NAME_EN": "Concordia Station" }, "geometry": { "type": "MultiPoint", "coordinates": [ [ 124.167035684303528, -74.666309388628576 ] ] } },
{ "type": "Feature", "properties": { "LATITUDE": -89.982893861299999, "LONGITUDE": 139.26699255299999, "POP_MAX": 200, "NAME_EN": "Amundsen–Scott South Pole Station" }, "geometry": { "type": "MultiPoint", "coordinates": [ [ 176.994452094231661, -89.999999814387266 ] ] } },
{ "type": "Feature", "properties": { "LATITUDE": -73.049612204400006, "LONGITUDE": -13.416711061000001, "POP_MAX": 10, "NAME_EN": "Wasa Research Station" }, "geometry": { "type": "MultiPoint", "coordinates": [ [ -13.416711061038598, -73.049612204377354 ] ] } },
{ "type": "Feature", "properties": { "LATITUDE": -72.016290264299997, "LONGITUDE": 2.5333231187099998, "POP_MAX": 44, "NAME_EN": "Troll" }, "geometry": { "type": "MultiPoint", "coordinates": [ [ 2.533323118712701, -72.01629026426906 ] ] } },
{ "type": "Feature", "properties": { "LATITUDE": -74.582903626900006, "LONGITUDE": -11.216690309100001, "POP_MAX": 10, "NAME_EN": "Svea" }, "geometry": { "type": "MultiPoint", "coordinates": [ [ -11.216690309076739, -74.58290362690957 ] ] } },
{ "type": "Feature", "properties": { "LATITUDE": -71.301234746800006, "LONGITUDE": -11.850212904799999, "POP_MAX": 70, "NAME_EN": null }, "geometry": { "type": "MultiPoint", "coordinates": [ [ -11.850212904777095, -71.301234746797263 ] ] } },
{ "type": "Feature", "properties": { "LATITUDE": -70.782179602300005, "LONGITUDE": 11.7304584017, "POP_MAX": 65, "NAME_EN": "Maitri" }, "geometry": { "type": "MultiPoint", "coordinates": [ [ 11.730458401674071, -70.78217960227073 ] ] } },
{ "type": "Feature", "properties": { "LATITUDE": -75.049593486899994, "LONGITUDE": -13.416711061000001, "POP_MAX": 18, "NAME_EN": null }, "geometry": { "type": "MultiPoint", "coordinates": [ [ -13.416711061038598, -75.049593486937454 ] ] } },
{ "type": "Feature", "properties": { "LATITUDE": -68.116321595599999, "LONGITUDE": -67.099997600999998, "POP_MAX": 20, "NAME_EN": "San Martín Base" }, "geometry": { "type": "MultiPoint", "coordinates": [ [ -67.099997600966958, -68.116321595633678 ] ] } },
{ "type": "Feature", "properties": { "LATITUDE": -63.3284182298, "LONGITUDE": -57.8895935185, "POP_MAX": 44, "NAME_EN": "Base General Bernardo O'Higgins Riquelme" }, "geometry": { "type": "MultiPoint", "coordinates": [ [ -57.88959351849013, -63.328418229802935 ] ] } },
{ "type": "Feature", "properties": { "LATITUDE": -63.3753286516, "LONGITUDE": -57.025901510399997, "POP_MAX": 250, "NAME_EN": "Esperanza Base" }, "geometry": { "type": "MultiPoint", "coordinates": [ [ -57.025901510412666, -63.3753286516353 ] ] } },
{ "type": "Feature", "properties": { "LATITUDE": -60.631308147, "LONGITUDE": -45.600703321499999, "POP_MAX": 8, "NAME_EN": "Signy Research Station" }, "geometry": { "type": "MultiPoint", "coordinates": [ [ -45.600703321451704, -60.63130814704914 ] ] } },
{ "type": "Feature", "properties": { "LATITUDE": -66.775050910209998, "LONGITUDE": 139.96368356279001, "POP_MAX": 120, "NAME_EN": "Dumont d'Urville Station" }, "geometry": { "type": "MultiPoint", "coordinates": [ [ 139.963683562787708, -66.77505091020555 ] ] } }
]
}
