{
"type": "FeatureCollection",
"name": "oceania_pop",
"crs": { "type": "name", "properties": { "name": "urn:ogc:def:crs:OGC:1.3:CRS84" } },
"features": [
{ "type": "Feature", "properties": { "LATITUDE": -6.2280000331699998, "LONGITUDE": 155.56599066800001, "POP_MAX": 40266, "NAME_EN": "Arawa" }, "geometry": { "type": "MultiPoint", "coordinates": [ [ 155.565990667737651, -6.228000033165301 ] ] } },
{ "type": "Feature", "properties": { "LATITUDE": -2.03200199676, "LONGITUDE": 147.27999664199999, "POP_MAX": 5806, "NAME_EN": "Lorengau" }, "geometry": { "type": "MultiPoint", "coordinates": [ [ 147.279996642175433, -2.032001996755184 ] ] } },
{ "type": "Feature", "properties": { "LATITUDE": -5.5500028904400001, "LONGITUDE": 150.143013709, "POP_MAX": 18847, "NAME_EN": "Kimbe" }, "geometry": { "type": "MultiPoint", "coordinates": [ [ 150.143013709169622, -5.550002890439828 ] ] } },
{ "type": "Feature", "properties": { "LATITUDE": -33.420041484800002, "LONGITUDE": 151.300004841, "POP_MAX": 3026, "NAME_EN": "Central Coast" }, "geometry": { "type": "MultiPoint", "coordinates": [ [ 151.300004841313012, -33.420041484817773 ] ] } },
{ "type": "Feature", "properties": { "LATITUDE": -26.679987773899999, "LONGITUDE": 153.05002722099999, "POP_MAX": 71043, "NAME_EN": "Sunshine Coast" }, "geometry": { "type": "MultiPoint", "coordinates": [ [ 153.050027220877382, -26.679987773853327 ] ] } },
{ "type": "Feature", "properties": { "LATITUDE": -30.1, "LONGITUDE": 145.9333333, "POP_MAX": 2475, "NAME_EN": "Bourke" }, "geometry": { "type": "MultiPoint", "coordinates": [ [ 145.933333299999958, -30.1 ] ] } },
{ "type": "Feature", "properties": { "LATITUDE": 21.981512267, "LONGITUDE": -159.37100630899999, "POP_MAX": 15536, "NAME_EN": "Līhuʻe" }, "geometry": { "type": "MultiPoint", "coordinates": [ [ -159.371006309018327, 21.981512267031462 ] ] } },
{ "type": "Feature", "properties": { "LATITUDE": 21.503091856899999, "LONGITUDE": -158.02362085199999, "POP_MAX": 174766, "NAME_EN": "Wahiawa" }, "geometry": { "type": "MultiPoint", "coordinates": [ [ -158.023620851656148, 21.503091856873368 ] ] } },
{ "type": "Feature", "properties": { "LATITUDE": 20.891475442499999, "LONGITUDE": -156.504721316, "POP_MAX": 52148, "NAME_EN": "Wailuku" }, "geometry": { "type": "MultiPoint", "coordinates": [ [ -156.50472131551723, 20.891475442482772 ] ] } },
{ "type": "Feature", "properties": { "LATITUDE": -15.5125557263, "LONGITUDE": 167.176606811, "POP_MAX": 13397, "NAME_EN": "Luganville" }, "geometry": { "type": "MultiPoint", "coordinates": [ [ 167.176606810777798, -15.512555726282585 ] ] } },
{ "type": "Feature", "properties": { "LATITUDE": -5.4297422013399999, "LONGITUDE": 154.671137512, "POP_MAX": 2338, "NAME_EN": null }, "geometry": { "type": "MultiPoint", "coordinates": [ [ 154.671137512130031, -5.429742201338172 ] ] } },
{ "type": "Feature", "properties": { "LATITUDE": -5.4746154593199998, "LONGITUDE": 150.40998164800001, "POP_MAX": 871, "NAME_EN": null }, "geometry": { "type": "MultiPoint", "coordinates": [ [ 150.40998164795019, -5.474615459315373 ] ] } },
{ "type": "Feature", "properties": { "LATITUDE": -10.7380183201, "LONGITUDE": 165.85673530899999, "POP_MAX": 553, "NAME_EN": "Lata" }, "geometry": { "type": "MultiPoint", "coordinates": [ [ 165.856735309311262, -10.738018320126912 ] ] } },
{ "type": "Feature", "properties": { "LATITUDE": -17.7995995902, "LONGITUDE": 177.41660192800001, "POP_MAX": 42284, "NAME_EN": "Nadi" }, "geometry": { "type": "MultiPoint", "coordinates": [ [ 177.416601928006003, -17.799599590224091 ] ] } },
{ "type": "Feature", "properties": { "LATITUDE": -17.616096579200001, "LONGITUDE": 177.46662471400001, "POP_MAX": 55894, "NAME_EN": "Lautoka" }, "geometry": { "type": "MultiPoint", "coordinates": [ [ 177.466624714464501, -17.616096579155624 ] ] } },
{ "type": "Feature", "properties": { "LATITUDE": -13.8161734834, "LONGITUDE": 131.81669795600001, "POP_MAX": 665, "NAME_EN": "Pine Creek" }, "geometry": { "type": "MultiPoint", "coordinates": [ [ 131.816697956469511, -13.816173483437296 ] ] } },
{ "type": "Feature", "properties": { "LATITUDE": -13.2495414034, "LONGITUDE": 131.09999751699999, "POP_MAX": 237, "NAME_EN": "Adelaide River" }, "geometry": { "type": "MultiPoint", "coordinates": [ [ 131.099997517013435, -13.249541403356943 ] ] } },
{ "type": "Feature", "properties": { "LATITUDE": -12.5328926403, "LONGITUDE": 131.05002640699999, "POP_MAX": 5025, "NAME_EN": "McMinns Lagoon" }, "geometry": { "type": "MultiPoint", "coordinates": [ [ 131.050026406987399, -12.532892640333216 ] ] } },
{ "type": "Feature", "properties": { "LATITUDE": -17.552792949600001, "LONGITUDE": 133.467243204, "POP_MAX": 10, "NAME_EN": "Newcastle Waters" }, "geometry": { "type": "MultiPoint", "coordinates": [ [ 133.467243203871817, -17.552792949598029 ] ] } },
{ "type": "Feature", "properties": { "LATITUDE": -33.582873923000001, "LONGITUDE": 120.033334512, "POP_MAX": 1101, "NAME_EN": "Ravensthorpe" }, "geometry": { "type": "MultiPoint", "coordinates": [ [ 120.033334512411898, -33.582873922969441 ] ] } },
{ "type": "Feature", "properties": { "LATITUDE": -33.299583721099999, "LONGITUDE": 117.349984089, "POP_MAX": 1598, "NAME_EN": "Wagin" }, "geometry": { "type": "MultiPoint", "coordinates": [ [ 117.349984089223994, -33.299583721145495 ] ] } },
{ "type": "Feature", "properties": { "LATITUDE": -20.782931702900001, "LONGITUDE": 117.13330480899999, "POP_MAX": 19260, "NAME_EN": "Roebourne" }, "geometry": { "type": "MultiPoint", "coordinates": [ [ 117.133304808624416, -20.782931702866222 ] ] } },
{ "type": "Feature", "properties": { "LATITUDE": -21.636574687900001, "LONGITUDE": 116.325033731, "POP_MAX": 686, "NAME_EN": "Pannawonica" }, "geometry": { "type": "MultiPoint", "coordinates": [ [ 116.325033731147187, -21.636574687895632 ] ] } },
{ "type": "Feature", "properties": { "LATITUDE": -22.693461081100001, "LONGITUDE": 117.79305782, "POP_MAX": 2723, "NAME_EN": "Tom Price" }, "geometry": { "type": "MultiPoint", "coordinates": [ [ 117.793057819694582, -22.693461081129044 ] ] } },
{ "type": "Feature", "properties": { "LATITUDE": -27.666180807700002, "LONGITUDE": 114.166664184, "POP_MAX": 1537, "NAME_EN": "Kalbarri" }, "geometry": { "type": "MultiPoint", "coordinates": [ [ 114.166664183612397, -27.666180807711498 ] ] } },
{ "type": "Feature", "properties": { "LATITUDE": -28.0662080701, "LONGITUDE": 117.81667394900001, "POP_MAX": 424, "NAME_EN": "Mount Magnet" }, "geometry": { "type": "MultiPoint", "coordinates": [ [ 117.816673949251935, -28.066208070082837 ] ] } },
{ "type": "Feature", "properties": { "LATITUDE": -29.216267070699999, "LONGITUDE": 116.000040648, "POP_MAX": 259, "NAME_EN": "Morawa" }, "geometry": { "type": "MultiPoint", "coordinates": [ [ 116.000040648463596, -29.216267070738468 ] ] } },
{ "type": "Feature", "properties": { "LATITUDE": -29.282826315499999, "LONGITUDE": 114.916644245, "POP_MAX": 1213, "NAME_EN": "Port Denison" }, "geometry": { "type": "MultiPoint", "coordinates": [ [ 114.91664424546434, -29.282826315530372 ] ] } },
{ "type": "Feature", "properties": { "LATITUDE": -31.4828470675, "LONGITUDE": 118.26667232200001, "POP_MAX": 2668, "NAME_EN": "Merredin" }, "geometry": { "type": "MultiPoint", "coordinates": [ [ 118.266672321649708, -31.482847067492344 ] ] } },
{ "type": "Feature", "properties": { "LATITUDE": -34.632783997799997, "LONGITUDE": 117.66660559, "POP_MAX": 1781, "NAME_EN": "Mount Barker" }, "geometry": { "type": "MultiPoint", "coordinates": [ [ 117.66660558987644, -34.632783997843489 ] ] } },
{ "type": "Feature", "properties": { "LATITUDE": -33.699559307100003, "LONGITUDE": 117.55007523499999, "POP_MAX": 3934, "NAME_EN": "Katanning" }, "geometry": { "type": "MultiPoint", "coordinates": [ [ 117.550075235058216, -33.699559307084542 ] ] } },
{ "type": "Feature", "properties": { "LATITUDE": -32.9328877576, "LONGITUDE": 117.166636107, "POP_MAX": 4238, "NAME_EN": "Narrogin" }, "geometry": { "type": "MultiPoint", "coordinates": [ [ 117.166636107452632, -32.932887757602259 ] ] } },
{ "type": "Feature", "properties": { "LATITUDE": -31.349573548599999, "LONGITUDE": 115.90004675199999, "POP_MAX": 1446, "NAME_EN": "Gingin" }, "geometry": { "type": "MultiPoint", "coordinates": [ [ 115.900046751978834, -31.349573548611602 ] ] } },
{ "type": "Feature", "properties": { "LATITUDE": -33.344283835100001, "LONGITUDE": 115.650242878, "POP_MAX": 26998, "NAME_EN": "Bunbury" }, "geometry": { "type": "MultiPoint", "coordinates": [ [ 115.650242878279869, -33.344283835077931 ] ] } },
{ "type": "Feature", "properties": { "LATITUDE": -32.2393900362, "LONGITUDE": 115.770235554, "POP_MAX": 20086, "NAME_EN": "Kwinana Beach" }, "geometry": { "type": "MultiPoint", "coordinates": [ [ 115.770235554061514, -32.239390036245368 ] ] } },
{ "type": "Feature", "properties": { "LATITUDE": -31.216145000400001, "LONGITUDE": 119.316685749, "POP_MAX": 187, "NAME_EN": "Southern Cross" }, "geometry": { "type": "MultiPoint", "coordinates": [ [ 119.316685749388284, -31.216145000433983 ] ] } },
{ "type": "Feature", "properties": { "LATITUDE": -25.7884142875, "LONGITUDE": 128.997335163, "POP_MAX": 355, "NAME_EN": "Kaltukatjara" }, "geometry": { "type": "MultiPoint", "coordinates": [ [ 128.997335163489424, -25.788414287521618 ] ] } },
{ "type": "Feature", "properties": { "LATITUDE": -35.354600404099997, "LONGITUDE": 149.21134680099999, "POP_MAX": 32602, "NAME_EN": "Queanbeyan" }, "geometry": { "type": "MultiPoint", "coordinates": [ [ 149.211346800940078, -35.354600404096345 ] ] } },
{ "type": "Feature", "properties": { "LATITUDE": -28.182583395599998, "LONGITUDE": 153.54663773499999, "POP_MAX": 33065, "NAME_EN": "Tweed Heads" }, "geometry": { "type": "MultiPoint", "coordinates": [ [ 153.546637735202239, -28.182583395604127 ] ] } },
{ "type": "Feature", "properties": { "LATITUDE": -32.899608135199998, "LONGITUDE": 144.30001867600001, "POP_MAX": 265, "NAME_EN": "Ivanhoe" }, "geometry": { "type": "MultiPoint", "coordinates": [ [ 144.300018675920455, -32.899608135206279 ] ] } },
{ "type": "Feature", "properties": { "LATITUDE": -31.566201152800001, "LONGITUDE": 143.38333044300001, "POP_MAX": 442, "NAME_EN": "Wilcannia" }, "geometry": { "type": "MultiPoint", "coordinates": [ [ 143.38333044349497, -31.566201152779172 ] ] } },
{ "type": "Feature", "properties": { "LATITUDE": -36.899622376799996, "LONGITUDE": 149.90003861400001, "POP_MAX": 6367, "NAME_EN": "Merimbula" }, "geometry": { "type": "MultiPoint", "coordinates": [ [ 149.900038614094115, -36.899622376758828 ] ] } },
{ "type": "Feature", "properties": { "LATITUDE": -36.129591859199998, "LONGITUDE": 144.75001704799999, "POP_MAX": 19457, "NAME_EN": "Echuca" }, "geometry": { "type": "MultiPoint", "coordinates": [ [ 144.750017048318, -36.129591859177594 ] ] } },
{ "type": "Feature", "properties": { "LATITUDE": -35.529576803799998, "LONGITUDE": 144.95000484100001, "POP_MAX": 8024, "NAME_EN": "Deniliquin" }, "geometry": { "type": "MultiPoint", "coordinates": [ [ 144.950004841287523, -35.529576803836676 ] ] } },
{ "type": "Feature", "properties": { "LATITUDE": -34.882846253700002, "LONGITUDE": 150.600047566, "POP_MAX": 94781, "NAME_EN": "Nowra" }, "geometry": { "type": "MultiPoint", "coordinates": [ [ 150.600047565919681, -34.882846253703804 ] ] } },
{ "type": "Feature", "properties": { "LATITUDE": -35.349536113699997, "LONGITUDE": 150.470029662, "POP_MAX": 9250, "NAME_EN": "Ulladulla" }, "geometry": { "type": "MultiPoint", "coordinates": [ [ 150.470029662273419, -35.349536113731801 ] ] } },
{ "type": "Feature", "properties": { "LATITUDE": -35.689618714600002, "LONGITUDE": 150.20730668100001, "POP_MAX": 10557, "NAME_EN": "Batemans Bay" }, "geometry": { "type": "MultiPoint", "coordinates": [ [ 150.207306680501347, -35.689618714644553 ] ] } },
{ "type": "Feature", "properties": { "LATITUDE": -36.239559307100002, "LONGITUDE": 149.12003454500001, "POP_MAX": 6520, "NAME_EN": "Cooma" }, "geometry": { "type": "MultiPoint", "coordinates": [ [ 149.120034545080443, -36.239559307094737 ] ] } },
{ "type": "Feature", "properties": { "LATITUDE": -35.309590231599998, "LONGITUDE": 148.2200378, "POP_MAX": 6526, "NAME_EN": "Tumut" }, "geometry": { "type": "MultiPoint", "coordinates": [ [ 148.220037800285013, -35.309590231570155 ] ] } },
{ "type": "Feature", "properties": { "LATITUDE": -34.544934062899998, "LONGITUDE": 146.39730668000001, "POP_MAX": 7299, "NAME_EN": "Leeton" }, "geometry": { "type": "MultiPoint", "coordinates": [ [ 146.397306680486281, -34.544934062947334 ] ] } },
{ "type": "Feature", "properties": { "LATITUDE": -34.309599590300003, "LONGITUDE": 148.29000769000001, "POP_MAX": 7501, "NAME_EN": "Young" }, "geometry": { "type": "MultiPoint", "coordinates": [ [ 148.290007689608274, -34.309599590290134 ] ] } },
{ "type": "Feature", "properties": { "LATITUDE": -33.829628887200002, "LONGITUDE": 148.680009724, "POP_MAX": 6795, "NAME_EN": "Cowra" }, "geometry": { "type": "MultiPoint", "coordinates": [ [ 148.680009724115166, -33.82962888716321 ] ] } },
{ "type": "Feature", "properties": { "LATITUDE": -33.3896040662, "LONGITUDE": 148.01999833100001, "POP_MAX": 4838, "NAME_EN": "Forbes" }, "geometry": { "type": "MultiPoint", "coordinates": [ [ 148.019998330883141, -33.389604066197876 ] ] } },
{ "type": "Feature", "properties": { "LATITUDE": -34.749572734799997, "LONGITUDE": 149.71017940199999, "POP_MAX": 20940, "NAME_EN": "Goulburn" }, "geometry": { "type": "MultiPoint", "coordinates": [ [ 149.710179401853452, -34.749572734823062 ] ] } },
{ "type": "Feature", "properties": { "LATITUDE": -34.709575176199998, "LONGITUDE": 150.840032917, "POP_MAX": 10379, "NAME_EN": "Kiama" }, "geometry": { "type": "MultiPoint", "coordinates": [ [ 150.840032917483086, -34.70957517622918 ] ] } },
{ "type": "Feature", "properties": { "LATITUDE": -33.706949036899999, "LONGITUDE": 150.32001297900001, "POP_MAX": 22076, "NAME_EN": "Katoomba" }, "geometry": { "type": "MultiPoint", "coordinates": [ [ 150.320012979330045, -33.706949036902301 ] ] } },
{ "type": "Feature", "properties": { "LATITUDE": -33.599513734200002, "LONGITUDE": 150.739987345, "POP_MAX": 13880, "NAME_EN": "Richmond" }, "geometry": { "type": "MultiPoint", "coordinates": [ [ 150.739987344565975, -33.599513734167431 ] ] } },
{ "type": "Feature", "properties": { "LATITUDE": -33.496109193199999, "LONGITUDE": 150.152788044, "POP_MAX": 11128, "NAME_EN": "Lithgow" }, "geometry": { "type": "MultiPoint", "coordinates": [ [ 150.152788044433464, -33.496109193151369 ] ] } },
{ "type": "Feature", "properties": { "LATITUDE": -33.129568258900001, "LONGITUDE": 148.170015014, "POP_MAX": 11137, "NAME_EN": "Parkes" }, "geometry": { "type": "MultiPoint", "coordinates": [ [ 148.170015013826514, -33.129568258905181 ] ] } },
{ "type": "Feature", "properties": { "LATITUDE": -33.419628073399998, "LONGITUDE": 149.57003291699999, "POP_MAX": 6111, "NAME_EN": "Bathurst" }, "geometry": { "type": "MultiPoint", "coordinates": [ [ 149.570032917477988, -33.41962807335949 ] ] } },
{ "type": "Feature", "properties": { "LATITUDE": -32.720962708800002, "LONGITUDE": 151.55502803499999, "POP_MAX": 18625, "NAME_EN": "Maitland" }, "geometry": { "type": "MultiPoint", "coordinates": [ [ 151.555028034673455, -32.720962708773357 ] ] } },
{ "type": "Feature", "properties": { "LATITUDE": -32.569499085700002, "LONGITUDE": 151.160013386, "POP_MAX": 13813, "NAME_EN": "Singleton" }, "geometry": { "type": "MultiPoint", "coordinates": [ [ 151.160013386234255, -32.569499085725852 ] ] } },
{ "type": "Feature", "properties": { "LATITUDE": -32.589601217899997, "LONGITUDE": 149.580109822, "POP_MAX": 5391, "NAME_EN": "Mudgee" }, "geometry": { "type": "MultiPoint", "coordinates": [ [ 149.580109821774954, -32.589601217887378 ] ] } },
{ "type": "Feature", "properties": { "LATITUDE": -32.269569072700001, "LONGITUDE": 150.89000402799999, "POP_MAX": 11630, "NAME_EN": "Muswellbrook" }, "geometry": { "type": "MultiPoint", "coordinates": [ [ 150.890004027509349, -32.26956907270386 ] ] } },
{ "type": "Feature", "properties": { "LATITUDE": -31.8976021131, "LONGITUDE": 152.46184606899999, "POP_MAX": 44182, "NAME_EN": "Taree" }, "geometry": { "type": "MultiPoint", "coordinates": [ [ 152.461846068531145, -31.897602113066853 ] ] } },
{ "type": "Feature", "properties": { "LATITUDE": -31.087367331199999, "LONGITUDE": 152.822030802, "POP_MAX": 11840, "NAME_EN": "Kempsey" }, "geometry": { "type": "MultiPoint", "coordinates": [ [ 152.822030801605592, -31.087367331162682 ] ] } },
{ "type": "Feature", "properties": { "LATITUDE": -30.987011699699998, "LONGITUDE": 150.262290404, "POP_MAX": 7148, "NAME_EN": "Gunnedah" }, "geometry": { "type": "MultiPoint", "coordinates": [ [ 150.262290404459918, -30.987011699651816 ] ] } },
{ "type": "Feature", "properties": { "LATITUDE": -30.307053203599999, "LONGITUDE": 153.11229732199999, "POP_MAX": 62978, "NAME_EN": "Coffs Harbour" }, "geometry": { "type": "MultiPoint", "coordinates": [ [ 153.112297321789129, -30.307053203555313 ] ] } },
{ "type": "Feature", "properties": { "LATITUDE": -30.331909567499999, "LONGITUDE": 149.787435668, "POP_MAX": 7082, "NAME_EN": "Narrabri" }, "geometry": { "type": "MultiPoint", "coordinates": [ [ 149.787435668130001, -30.331909567487685 ] ] } },
{ "type": "Feature", "properties": { "LATITUDE": -29.7667761039, "LONGITUDE": 151.11257442100001, "POP_MAX": 8561, "NAME_EN": "Inverell" }, "geometry": { "type": "MultiPoint", "coordinates": [ [ 151.112574421390377, -29.766776103943812 ] ] } },
{ "type": "Feature", "properties": { "LATITUDE": -29.422991364800001, "LONGITUDE": 153.35331197299999, "POP_MAX": 1806, "NAME_EN": "Yamba" }, "geometry": { "type": "MultiPoint", "coordinates": [ [ 153.353311973030145, -29.422991364802783 ] ] } },
{ "type": "Feature", "properties": { "LATITUDE": -28.8613533338, "LONGITUDE": 153.56798010200001, "POP_MAX": 14242, "NAME_EN": "Ballina" }, "geometry": { "type": "MultiPoint", "coordinates": [ [ 153.56798010173884, -28.861353333757904 ] ] } },
{ "type": "Feature", "properties": { "LATITUDE": -35.1221598116, "LONGITUDE": 147.33998815800001, "POP_MAX": 55381, "NAME_EN": "Wagga Wagga" }, "geometry": { "type": "MultiPoint", "coordinates": [ [ 147.339988158354572, -35.122159811647521 ] ] } },
{ "type": "Feature", "properties": { "LATITUDE": -32.079606507599998, "LONGITUDE": 150.85010982200001, "POP_MAX": 4624, "NAME_EN": "Scone" }, "geometry": { "type": "MultiPoint", "coordinates": [ [ 150.850109821780052, -32.079606507598839 ] ] } },
{ "type": "Feature", "properties": { "LATITUDE": -28.656507956199999, "LONGITUDE": 153.61288692100001, "POP_MAX": 6764, "NAME_EN": "Byron Bay" }, "geometry": { "type": "MultiPoint", "coordinates": [ [ 153.612886921400445, -28.656507956152893 ] ] } },
{ "type": "Feature", "properties": { "LATITUDE": -34.2829345512, "LONGITUDE": 140.6000378, "POP_MAX": 4716, "NAME_EN": "Berri" }, "geometry": { "type": "MultiPoint", "coordinates": [ [ 140.600037800254654, -34.28293455122747 ] ] } },
{ "type": "Feature", "properties": { "LATITUDE": -32.96616738, "LONGITUDE": 138.833323933, "POP_MAX": 1689, "NAME_EN": "Peterborough" }, "geometry": { "type": "MultiPoint", "coordinates": [ [ 138.833323933060001, -32.96616737999824 ] ] } },
{ "type": "Feature", "properties": { "LATITUDE": -33.932878398900002, "LONGITUDE": 137.63329382200001, "POP_MAX": 2779, "NAME_EN": "Wallaroo" }, "geometry": { "type": "MultiPoint", "coordinates": [ [ 137.63329382237805, -33.932878398882394 ] ] } },
{ "type": "Feature", "properties": { "LATITUDE": -33.832884502399999, "LONGITUDE": 138.60000484099999, "POP_MAX": 3061, "NAME_EN": "Clare" }, "geometry": { "type": "MultiPoint", "coordinates": [ [ 138.600004841262148, -33.832884502397576 ] ] } },
{ "type": "Feature", "properties": { "LATITUDE": -35.699540589599998, "LONGITUDE": 139.333345092, "POP_MAX": 1501, "NAME_EN": "Meningie" }, "geometry": { "type": "MultiPoint", "coordinates": [ [ 139.333345091916271, -35.699540589644641 ] ] } },
{ "type": "Feature", "properties": { "LATITUDE": -36.316195456199999, "LONGITUDE": 140.76664261799999, "POP_MAX": 2583, "NAME_EN": "Bordertown" }, "geometry": { "type": "MultiPoint", "coordinates": [ [ 140.766642617963726, -36.31619545618355 ] ] } },
{ "type": "Feature", "properties": { "LATITUDE": -37.382952048, "LONGITUDE": 140.81666540399999, "POP_MAX": 1514, "NAME_EN": "Penola" }, "geometry": { "type": "MultiPoint", "coordinates": [ [ 140.816665404422224, -37.382952047984702 ] ] } },
{ "type": "Feature", "properties": { "LATITUDE": -30.899575176199999, "LONGITUDE": 135.299999552, "POP_MAX": 50, "NAME_EN": "Kingoonya" }, "geometry": { "type": "MultiPoint", "coordinates": [ [ 135.299999551535507, -30.899575176214 ] ] } },
{ "type": "Feature", "properties": { "LATITUDE": -33.149618714600003, "LONGITUDE": 136.433367065, "POP_MAX": 636, "NAME_EN": "Kimba" }, "geometry": { "type": "MultiPoint", "coordinates": [ [ 136.433367064560798, -33.149618714634471 ] ] } },
{ "type": "Feature", "properties": { "LATITUDE": -32.811871755799999, "LONGITUDE": 134.21492964699999, "POP_MAX": 1060, "NAME_EN": "Streaky Bay" }, "geometry": { "type": "MultiPoint", "coordinates": [ [ 134.214929646610358, -32.811871755785035 ] ] } },
{ "type": "Feature", "properties": { "LATITUDE": -33.682867819499997, "LONGITUDE": 136.91664505899999, "POP_MAX": 537, "NAME_EN": "Cowell" }, "geometry": { "type": "MultiPoint", "coordinates": [ [ 136.916645059354551, -33.682867819454259 ] ] } },
{ "type": "Feature", "properties": { "LATITUDE": -34.382928447700003, "LONGITUDE": 136.083310912, "POP_MAX": 1791, "NAME_EN": "Tumby Bay" }, "geometry": { "type": "MultiPoint", "coordinates": [ [ 136.083310912215666, -34.382928447712288 ] ] } },
{ "type": "Feature", "properties": { "LATITUDE": -30.430973288200001, "LONGITUDE": 137.16557043399999, "POP_MAX": 528, "NAME_EN": "Andamooka" }, "geometry": { "type": "MultiPoint", "coordinates": [ [ 137.165570433704374, -30.430973288191296 ] ] } },
{ "type": "Feature", "properties": { "LATITUDE": -31.1495857556, "LONGITUDE": 136.80001135200001, "POP_MAX": 450, "NAME_EN": "Woomera" }, "geometry": { "type": "MultiPoint", "coordinates": [ [ 136.800011351671742, -31.149585755642022 ] ] } },
{ "type": "Feature", "properties": { "LATITUDE": -33.191063213299998, "LONGITUDE": 137.990016234, "POP_MAX": 12506, "NAME_EN": "Port Pirie" }, "geometry": { "type": "MultiPoint", "coordinates": [ [ 137.990016234488962, -33.191063213332484 ] ] } },
{ "type": "Feature", "properties": { "LATITUDE": -34.607359193199997, "LONGITUDE": 138.72635371800001, "POP_MAX": 16362, "NAME_EN": "Gawler" }, "geometry": { "type": "MultiPoint", "coordinates": [ [ 138.726353718215819, -34.607359193155901 ] ] } },
{ "type": "Feature", "properties": { "LATITUDE": -35.129601217900003, "LONGITUDE": 139.26001623400001, "POP_MAX": 18194, "NAME_EN": "Murray Bridge" }, "geometry": { "type": "MultiPoint", "coordinates": [ [ 139.260016234494174, -35.129601217897573 ] ] } },
{ "type": "Feature", "properties": { "LATITUDE": -35.559600811000003, "LONGITUDE": 138.61731644599999, "POP_MAX": 7760, "NAME_EN": "Victor Harbor" }, "geometry": { "type": "MultiPoint", "coordinates": [ [ 138.617316446080054, -35.559600810998234 ] ] } },
{ "type": "Feature", "properties": { "LATITUDE": -37.731199525199997, "LONGITUDE": 142.02341345100001, "POP_MAX": 8869, "NAME_EN": "Hamilton" }, "geometry": { "type": "MultiPoint", "coordinates": [ [ 142.023413451301963, -37.7311995251996 ] ] } },
{ "type": "Feature", "properties": { "LATITUDE": -35.066194235499999, "LONGITUDE": 142.31667720499999, "POP_MAX": 1400, "NAME_EN": "Ouyen" }, "geometry": { "type": "MultiPoint", "coordinates": [ [ 142.316677204558232, -35.06619423547545 ] ] } },
{ "type": "Feature", "properties": { "LATITUDE": -38.3395344861, "LONGITUDE": 143.580010945, "POP_MAX": 9089, "NAME_EN": "Colac" }, "geometry": { "type": "MultiPoint", "coordinates": [ [ 143.580010944797777, -38.339534486139542 ] ] } },
{ "type": "Feature", "properties": { "LATITUDE": -37.0596126111, "LONGITUDE": 142.760009317, "POP_MAX": 6991, "NAME_EN": "Stawell" }, "geometry": { "type": "MultiPoint", "coordinates": [ [ 142.760009317190338, -37.059612611134412 ] ] } },
{ "type": "Feature", "properties": { "LATITUDE": -36.7096081352, "LONGITUDE": 142.19001826900001, "POP_MAX": 12830, "NAME_EN": "Horsham" }, "geometry": { "type": "MultiPoint", "coordinates": [ [ 142.190018269011034, -36.709608135221629 ] ] } },
{ "type": "Feature", "properties": { "LATITUDE": -37.279547506999997, "LONGITUDE": 142.90997432399999, "POP_MAX": 6110, "NAME_EN": "Ararat" }, "geometry": { "type": "MultiPoint", "coordinates": [ [ 142.909974323701363, -37.27954750696864 ] ] } },
{ "type": "Feature", "properties": { "LATITUDE": -37.0495873833, "LONGITUDE": 143.729975951, "POP_MAX": 7046, "NAME_EN": "Maryborough" }, "geometry": { "type": "MultiPoint", "coordinates": [ [ 143.729975951308916, -37.049587383269852 ] ] } },
{ "type": "Feature", "properties": { "LATITUDE": -37.829591452300001, "LONGITUDE": 147.60999751700001, "POP_MAX": 11005, "NAME_EN": "Bairnsdale" }, "geometry": { "type": "MultiPoint", "coordinates": [ [ 147.609997517079478, -37.829591452283296 ] ] } },
{ "type": "Feature", "properties": { "LATITUDE": -38.109574362399997, "LONGITUDE": 147.06000524800001, "POP_MAX": 22486, "NAME_EN": "Sale" }, "geometry": { "type": "MultiPoint", "coordinates": [ [ 147.060005248197058, -38.109574362440753 ] ] } },
{ "type": "Feature", "properties": { "LATITUDE": -38.199594707499998, "LONGITUDE": 146.53001175899999, "POP_MAX": 18226, "NAME_EN": "Traralgon" }, "geometry": { "type": "MultiPoint", "coordinates": [ [ 146.530011758611863, -38.199594707493191 ] ] } },
{ "type": "Feature", "properties": { "LATITUDE": -38.609492168400003, "LONGITUDE": 145.59001745500001, "POP_MAX": 5985, "NAME_EN": "Wonthaggi" }, "geometry": { "type": "MultiPoint", "coordinates": [ [ 145.590017455222437, -38.609492168432325 ] ] } },
{ "type": "Feature", "properties": { "LATITUDE": -38.099600811000002, "LONGITUDE": 145.28336950600001, "POP_MAX": 460491, "NAME_EN": "Cranbourne" }, "geometry": { "type": "MultiPoint", "coordinates": [ [ 145.283369506002487, -38.099600811008372 ] ] } },
{ "type": "Feature", "properties": { "LATITUDE": -37.5595820936, "LONGITUDE": 143.84004675200001, "POP_MAX": 85109, "NAME_EN": "Ballarat" }, "geometry": { "type": "MultiPoint", "coordinates": [ [ 143.840046752090416, -37.55958209355822 ] ] } },
{ "type": "Feature", "properties": { "LATITUDE": -37.6895483208, "LONGITUDE": 144.57002803500001, "POP_MAX": 32368, "NAME_EN": "Melton" }, "geometry": { "type": "MultiPoint", "coordinates": [ [ 144.570028034645475, -37.68954832077236 ] ] } },
{ "type": "Feature", "properties": { "LATITUDE": -37.034239482899999, "LONGITUDE": 145.12730668, "POP_MAX": 3693, "NAME_EN": "Seymour" }, "geometry": { "type": "MultiPoint", "coordinates": [ [ 145.12730668048107, -37.034239482879173 ] ] } },
{ "type": "Feature", "properties": { "LATITUDE": -36.374589824700003, "LONGITUDE": 145.391373249, "POP_MAX": 33550, "NAME_EN": "Shepparton" }, "geometry": { "type": "MultiPoint", "coordinates": [ [ 145.391373249492631, -36.374589824673421 ] ] } },
{ "type": "Feature", "properties": { "LATITUDE": -35.919630514799998, "LONGITUDE": 145.650013793, "POP_MAX": 4659, "NAME_EN": "Cobram" }, "geometry": { "type": "MultiPoint", "coordinates": [ [ 145.65001379311343, -35.919630514775747 ] ] } },
{ "type": "Feature", "properties": { "LATITUDE": -35.339614238700001, "LONGITUDE": 143.540013386, "POP_MAX": 9276, "NAME_EN": "Swan Hill" }, "geometry": { "type": "MultiPoint", "coordinates": [ [ 143.540013386204009, -35.33961423873177 ] ] } },
{ "type": "Feature", "properties": { "LATITUDE": -37.569607321399999, "LONGITUDE": 144.71001949000001, "POP_MAX": 29925, "NAME_EN": "Sunbury" }, "geometry": { "type": "MultiPoint", "coordinates": [ [ 144.710019489724118, -37.56960732142295 ] ] } },
{ "type": "Feature", "properties": { "LATITUDE": -20.416235739299999, "LONGITUDE": 148.583478149, "POP_MAX": 3976, "NAME_EN": "Proserpine" }, "geometry": { "type": "MultiPoint", "coordinates": [ [ 148.583478148594054, -20.416235739323042 ] ] } },
{ "type": "Feature", "properties": { "LATITUDE": -24.949499085700001, "LONGITUDE": 150.08333491900001, "POP_MAX": 246, "NAME_EN": "Theodore" }, "geometry": { "type": "MultiPoint", "coordinates": [ [ 150.083334919433128, -24.949499085695379 ] ] } },
{ "type": "Feature", "properties": { "LATITUDE": -25.366217835699999, "LONGITUDE": 151.13334834700001, "POP_MAX": 459, "NAME_EN": "Eidsvold" }, "geometry": { "type": "MultiPoint", "coordinates": [ [ 151.133348347171705, -25.366217835697 ] ] } },
{ "type": "Feature", "properties": { "LATITUDE": -23.566172669699998, "LONGITUDE": 145.28336950600001, "POP_MAX": 1068, "NAME_EN": "Barcaldine" }, "geometry": { "type": "MultiPoint", "coordinates": [ [ 145.283369506002487, -23.566172669674188 ] ] } },
{ "type": "Feature", "properties": { "LATITUDE": -22.3996288871, "LONGITUDE": 143.033274291, "POP_MAX": 1157, "NAME_EN": "Winton" }, "geometry": { "type": "MultiPoint", "coordinates": [ [ 143.033274291149723, -22.399628887117444 ] ] } },
{ "type": "Feature", "properties": { "LATITUDE": -23.4495906384, "LONGITUDE": 144.25004756600001, "POP_MAX": 2894, "NAME_EN": "Longreach" }, "geometry": { "type": "MultiPoint", "coordinates": [ [ 144.250047565894192, -23.449590638423786 ] ] } },
{ "type": "Feature", "properties": { "LATITUDE": -27.082960592900001, "LONGITUDE": 152.949981648, "POP_MAX": 31513, "NAME_EN": "Caboolture" }, "geometry": { "type": "MultiPoint", "coordinates": [ [ 152.949981647960271, -27.08296059286539 ] ] } },
{ "type": "Feature", "properties": { "LATITUDE": -28.229247214000001, "LONGITUDE": 152.020322631, "POP_MAX": 12347, "NAME_EN": "Warwick" }, "geometry": { "type": "MultiPoint", "coordinates": [ [ 152.020322631029444, -28.229247213963731 ] ] } },
{ "type": "Feature", "properties": { "LATITUDE": -26.538962790100001, "LONGITUDE": 151.840592, "POP_MAX": 8573, "NAME_EN": "Kingaroy" }, "geometry": { "type": "MultiPoint", "coordinates": [ [ 151.840591999518324, -26.538962790128778 ] ] } },
{ "type": "Feature", "properties": { "LATITUDE": -27.193858216599999, "LONGITUDE": 151.265743367, "POP_MAX": 9847, "NAME_EN": "Dalby" }, "geometry": { "type": "MultiPoint", "coordinates": [ [ 151.265743366703646, -27.193858216563683 ] ] } },
{ "type": "Feature", "properties": { "LATITUDE": -27.0787231254, "LONGITUDE": 153.15089961699999, "POP_MAX": 13649, "NAME_EN": "Bongaree" }, "geometry": { "type": "MultiPoint", "coordinates": [ [ 153.150899616711285, -27.078723125417412 ] ] } },
{ "type": "Feature", "properties": { "LATITUDE": -26.188596579199999, "LONGITUDE": 152.670928914, "POP_MAX": 11649, "NAME_EN": "Gympie" }, "geometry": { "type": "MultiPoint", "coordinates": [ [ 152.670928913584362, -26.188596579189891 ] ] } },
{ "type": "Feature", "properties": { "LATITUDE": -18.649573548599999, "LONGITUDE": 146.166623087, "POP_MAX": 6127, "NAME_EN": "Ingham" }, "geometry": { "type": "MultiPoint", "coordinates": [ [ 146.166623086735171, -18.649573548560795 ] ] } },
{ "type": "Feature", "properties": { "LATITUDE": -25.899621969799998, "LONGITUDE": 139.36662471400001, "POP_MAX": 283, "NAME_EN": "Birdsville" }, "geometry": { "type": "MultiPoint", "coordinates": [ [ 139.366624714312252, -25.899621969813779 ] ] } },
{ "type": "Feature", "properties": { "LATITUDE": -24.349587383199999, "LONGITUDE": 139.466618611, "POP_MAX": 142, "NAME_EN": "Bedourie" }, "geometry": { "type": "MultiPoint", "coordinates": [ [ 139.466618610797013, -24.349587383219045 ] ] } },
{ "type": "Feature", "properties": { "LATITUDE": -22.899598369500001, "LONGITUDE": 139.90002884800001, "POP_MAX": 600, "NAME_EN": "Boulia" }, "geometry": { "type": "MultiPoint", "coordinates": [ [ 139.90002884842886, -22.899598369541309 ] ] } },
{ "type": "Feature", "properties": { "LATITUDE": -20.716269105199999, "LONGITUDE": 143.13331986399999, "POP_MAX": 296, "NAME_EN": "Richmond" }, "geometry": { "type": "MultiPoint", "coordinates": [ [ 143.133319864066834, -20.716269105209676 ] ] } },
{ "type": "Feature", "properties": { "LATITUDE": -17.716090475600001, "LONGITUDE": 139.566612507, "POP_MAX": 200, "NAME_EN": "Burketown" }, "geometry": { "type": "MultiPoint", "coordinates": [ [ 139.566612507281775, -17.716090475640385 ] ] } },
{ "type": "Feature", "properties": { "LATITUDE": -25.288703187300001, "LONGITUDE": 152.84094437600001, "POP_MAX": 25114, "NAME_EN": "Hervey Bay" }, "geometry": { "type": "MultiPoint", "coordinates": [ [ 152.840944375824392, -25.288703187259273 ] ] } },
{ "type": "Feature", "properties": { "LATITUDE": -24.393564027099998, "LONGITUDE": 150.49607458400001, "POP_MAX": 6309, "NAME_EN": "Biloela" }, "geometry": { "type": "MultiPoint", "coordinates": [ [ 150.49607458414846, -24.393564027099387 ] ] } },
{ "type": "Feature", "properties": { "LATITUDE": -23.1329174613, "LONGITUDE": 150.75673050899999, "POP_MAX": 10769, "NAME_EN": "Yeppoon" }, "geometry": { "type": "MultiPoint", "coordinates": [ [ 150.756730508628607, -23.132917461339161 ] ] } },
{ "type": "Feature", "properties": { "LATITUDE": -23.512222474400001, "LONGITUDE": 148.167327839, "POP_MAX": 9398, "NAME_EN": "Emerald" }, "geometry": { "type": "MultiPoint", "coordinates": [ [ 148.167327839347536, -23.512222474361522 ] ] } },
{ "type": "Feature", "properties": { "LATITUDE": -22.001565329200002, "LONGITUDE": 148.03803340600001, "POP_MAX": 10000, "NAME_EN": "Moranbah" }, "geometry": { "type": "MultiPoint", "coordinates": [ [ 148.03803340575314, -22.001565329173161 ] ] } },
{ "type": "Feature", "properties": { "LATITUDE": -20.080907370199998, "LONGITUDE": 146.25871048900001, "POP_MAX": 9573, "NAME_EN": "Charters Towers" }, "geometry": { "type": "MultiPoint", "coordinates": [ [ 146.258710489079476, -20.080907370181137 ] ] } },
{ "type": "Feature", "properties": { "LATITUDE": -19.570240866300001, "LONGITUDE": 147.39946773200001, "POP_MAX": 9078, "NAME_EN": "Ayr" }, "geometry": { "type": "MultiPoint", "coordinates": [ [ 147.399467731922527, -19.570240866272798 ] ] } },
{ "type": "Feature", "properties": { "LATITUDE": -17.270277894300001, "LONGITUDE": 145.46935298599999, "POP_MAX": 6959, "NAME_EN": "Atherton" }, "geometry": { "type": "MultiPoint", "coordinates": [ [ 145.469352985821047, -17.270277894258413 ] ] } },
{ "type": "Feature", "properties": { "LATITUDE": -40.8329223442, "LONGITUDE": 145.116661335, "POP_MAX": 4202, "NAME_EN": "Smithton" }, "geometry": { "type": "MultiPoint", "coordinates": [ [ 145.11666133542883, -40.832922344222482 ] ] } },
{ "type": "Feature", "properties": { "LATITUDE": -41.149492168400002, "LONGITUDE": 147.51666988, "POP_MAX": 2468, "NAME_EN": "Scottsdale" }, "geometry": { "type": "MultiPoint", "coordinates": [ [ 147.516669880360382, -41.149492168442464 ] ] } },
{ "type": "Feature", "properties": { "LATITUDE": -42.299602845499997, "LONGITUDE": 147.36660152100001, "POP_MAX": 1157, "NAME_EN": "Oatlands" }, "geometry": { "type": "MultiPoint", "coordinates": [ [ 147.366601520985, -42.299602845530387 ] ] } },
{ "type": "Feature", "properties": { "LATITUDE": -42.0829235649, "LONGITUDE": 145.550019897, "POP_MAX": 2352, "NAME_EN": "Queenstown" }, "geometry": { "type": "MultiPoint", "coordinates": [ [ 145.550019896628555, -42.082923564930582 ] ] } },
{ "type": "Feature", "properties": { "LATITUDE": -42.991136862499999, "LONGITUDE": 147.30841385799999, "POP_MAX": 14371, "NAME_EN": "Kingston" }, "geometry": { "type": "MultiPoint", "coordinates": [ [ 147.308413858224185, -42.991136862460223 ] ] } },
{ "type": "Feature", "properties": { "LATITUDE": 15.211253681400001, "LONGITUDE": 145.75057613000001, "POP_MAX": 2500, "NAME_EN": "Capitol Hill" }, "geometry": { "type": "MultiPoint", "coordinates": [ [ 145.750576130353465, 15.211253681392293 ] ] } },
{ "type": "Feature", "properties": { "LATITUDE": -18.649573548599999, "LONGITUDE": -173.983292686, "POP_MAX": 7391, "NAME_EN": "Neiafu" }, "geometry": { "type": "MultiPoint", "coordinates": [ [ -173.983292686029927, -18.649573548560795 ] ] } },
{ "type": "Feature", "properties": { "LATITUDE": 7.3452263548400003, "LONGITUDE": 134.46950087100001, "POP_MAX": 11200, "NAME_EN": "Koror" }, "geometry": { "type": "MultiPoint", "coordinates": [ [ 134.469500870983325, 7.345226354842282 ] ] } },
{ "type": "Feature", "properties": { "LATITUDE": 19.6405556, "LONGITUDE": -155.9955556, "POP_MAX": 9870, "NAME_EN": "Kailua" }, "geometry": { "type": "MultiPoint", "coordinates": [ [ -155.98374656796085, 19.65236463203928 ] ] } },
{ "type": "Feature", "properties": { "LATITUDE": -22.2625277637, "LONGITUDE": 166.44428520299999, "POP_MAX": 93060, "NAME_EN": "Nouméa" }, "geometry": { "type": "MultiPoint", "coordinates": [ [ 166.444285203130789, -22.262527763730759 ] ] } },
{ "type": "Feature", "properties": { "LATITUDE": -16.416583232800001, "LONGITUDE": 179.38330358799999, "POP_MAX": 24187, "NAME_EN": "Labasa" }, "geometry": { "type": "MultiPoint", "coordinates": [ [ 179.383303588170179, -16.416583232796597 ] ] } },
{ "type": "Feature", "properties": { "LATITUDE": -19.6500292777, "LONGITUDE": 134.200015014, "POP_MAX": 3889, "NAME_EN": "Tennant Creek" }, "geometry": { "type": "MultiPoint", "coordinates": [ [ 134.200015013770667, -19.650029277731448 ] ] } },
{ "type": "Feature", "properties": { "LATITUDE": -25.240540752400001, "LONGITUDE": 130.98889318799999, "POP_MAX": 930, "NAME_EN": "Yulara" }, "geometry": { "type": "MultiPoint", "coordinates": [ [ 130.988893187585859, -25.240540752363188 ] ] } },
{ "type": "Feature", "properties": { "LATITUDE": -25.2333060518, "LONGITUDE": 133.199972696, "POP_MAX": 10, "NAME_EN": "Erldunda" }, "geometry": { "type": "MultiPoint", "coordinates": [ [ 133.199972696058353, -25.233306051842305 ] ] } },
{ "type": "Feature", "properties": { "LATITUDE": -32.2000125948, "LONGITUDE": 121.766613728, "POP_MAX": 1004, "NAME_EN": "Norseman" }, "geometry": { "type": "MultiPoint", "coordinates": [ [ 121.766613727913636, -32.200012594838938 ] ] } },
{ "type": "Feature", "properties": { "LATITUDE": -18.266702861700001, "LONGITUDE": 127.766712605, "POP_MAX": 1209, "NAME_EN": "Halls Creek" }, "geometry": { "type": "MultiPoint", "coordinates": [ [ 127.766712604890813, -18.266702861710257 ] ] } },
{ "type": "Feature", "properties": { "LATITUDE": -15.766597067399999, "LONGITUDE": 128.733320271, "POP_MAX": 5679, "NAME_EN": "Kununurra" }, "geometry": { "type": "MultiPoint", "coordinates": [ [ 128.733320270910212, -15.766597067429416 ] ] } },
{ "type": "Feature", "properties": { "LATITUDE": -17.299991842800001, "LONGITUDE": 123.96663448, "POP_MAX": 3199, "NAME_EN": "Derby" }, "geometry": { "type": "MultiPoint", "coordinates": [ [ 123.966634479875552, -17.299991842826273 ] ] } },
{ "type": "Feature", "properties": { "LATITUDE": -24.8998380343, "LONGITUDE": 113.65010656600001, "POP_MAX": 7392, "NAME_EN": "Carnarvon" }, "geometry": { "type": "MultiPoint", "coordinates": [ [ 113.650106566422778, -24.899838034262871 ] ] } },
{ "type": "Feature", "properties": { "LATITUDE": -23.366598288199999, "LONGITUDE": 119.73330114700001, "POP_MAX": 5138, "NAME_EN": "Newman" }, "geometry": { "type": "MultiPoint", "coordinates": [ [ 119.733301146525491, -23.366598288162947 ] ] } },
{ "type": "Feature", "properties": { "LATITUDE": -26.5999926567, "LONGITUDE": 118.483299926, "POP_MAX": 654, "NAME_EN": "Meekatharra" }, "geometry": { "type": "MultiPoint", "coordinates": [ [ 118.483299925817278, -26.599992656665506 ] ] } },
{ "type": "Feature", "properties": { "LATITUDE": -29.533301982800001, "LONGITUDE": 115.74997839300001, "POP_MAX": 190, "NAME_EN": "Three Springs" }, "geometry": { "type": "MultiPoint", "coordinates": [ [ 115.749978392603225, -29.533301982849082 ] ] } },
{ "type": "Feature", "properties": { "LATITUDE": -34.233325176199997, "LONGITUDE": 116.150005655, "POP_MAX": 4240, "NAME_EN": "Manjimup" }, "geometry": { "type": "MultiPoint", "coordinates": [ [ 116.150005654974734, -34.233325176227311 ] ] } },
{ "type": "Feature", "properties": { "LATITUDE": -31.656583232900001, "LONGITUDE": 116.653385782, "POP_MAX": 5855, "NAME_EN": "Northam" }, "geometry": { "type": "MultiPoint", "coordinates": [ [ 116.653385781929728, -31.656583232857656 ] ] } },
{ "type": "Feature", "properties": { "LATITUDE": -28.8815071424, "LONGITUDE": 121.328035847, "POP_MAX": 227, "NAME_EN": "Leonora" }, "geometry": { "type": "MultiPoint", "coordinates": [ [ 121.328035847052661, -28.881507142351722 ] ] } },
{ "type": "Feature", "properties": { "LATITUDE": -28.627000713299999, "LONGITUDE": 122.40404252, "POP_MAX": 316, "NAME_EN": "Laverton" }, "geometry": { "type": "MultiPoint", "coordinates": [ [ 122.404042520234043, -28.62700071331426 ] ] } },
{ "type": "Feature", "properties": { "LATITUDE": -15.373959534899999, "LONGITUDE": 128.3600614, "POP_MAX": 800, "NAME_EN": "Wyndham" }, "geometry": { "type": "MultiPoint", "coordinates": [ [ 128.360061400465952, -15.373959534875837 ] ] } },
{ "type": "Feature", "properties": { "LATITUDE": -36.060035381299997, "LONGITUDE": 146.92001379300001, "POP_MAX": 104258, "NAME_EN": "Albury" }, "geometry": { "type": "MultiPoint", "coordinates": [ [ 146.920013793118414, -36.060035381312787 ] ] } },
{ "type": "Feature", "properties": { "LATITUDE": -31.445019919100002, "LONGITUDE": 152.91866573, "POP_MAX": 48547, "NAME_EN": "Port Macquarie" }, "geometry": { "type": "MultiPoint", "coordinates": [ [ 152.918665729991403, -31.44501991905463 ] ] } },
{ "type": "Feature", "properties": { "LATITUDE": -31.102611878699999, "LONGITUDE": 150.917134154, "POP_MAX": 38551, "NAME_EN": "Tamworth" }, "geometry": { "type": "MultiPoint", "coordinates": [ [ 150.917134154462701, -31.102611878688776 ] ] } },
{ "type": "Feature", "properties": { "LATITUDE": -29.7119990857, "LONGITUDE": 152.93768265700001, "POP_MAX": 9955, "NAME_EN": "Grafton" }, "geometry": { "type": "MultiPoint", "coordinates": [ [ 152.937682657074788, -29.71199908571441 ] ] } },
{ "type": "Feature", "properties": { "LATITUDE": -29.469895000400001, "LONGITUDE": 149.83006872499999, "POP_MAX": 8203, "NAME_EN": "Moree" }, "geometry": { "type": "MultiPoint", "coordinates": [ [ 149.83006872477074, -29.469895000427016 ] ] } },
{ "type": "Feature", "properties": { "LATITUDE": -28.554808737399998, "LONGITUDE": 150.32528397499999, "POP_MAX": 4251, "NAME_EN": "Goondiwindi" }, "geometry": { "type": "MultiPoint", "coordinates": [ [ 150.325283975423872, -28.554808737402539 ] ] } },
{ "type": "Feature", "properties": { "LATITUDE": -28.816653219799999, "LONGITUDE": 153.29311315800001, "POP_MAX": 31430, "NAME_EN": "Lismore" }, "geometry": { "type": "MultiPoint", "coordinates": [ [ 153.293113158378446, -28.816653219825469 ] ] } },
{ "type": "Feature", "properties": { "LATITUDE": -34.415381247200003, "LONGITUDE": 150.89000402799999, "POP_MAX": 260914, "NAME_EN": "Wollongong" }, "geometry": { "type": "MultiPoint", "coordinates": [ [ 150.890004027509349, -34.41538124719159 ] ] } },
{ "type": "Feature", "properties": { "LATITUDE": -32.099134638099997, "LONGITUDE": 133.66226738899999, "POP_MAX": 1586, "NAME_EN": "Ceduna" }, "geometry": { "type": "MultiPoint", "coordinates": [ [ 133.66226738911098, -32.09913463807635 ] ] } },
{ "type": "Feature", "properties": { "LATITUDE": -37.831348450999997, "LONGITUDE": 140.76504064900001, "POP_MAX": 23209, "NAME_EN": "Mount Gambier" }, "geometry": { "type": "MultiPoint", "coordinates": [ [ 140.765040648562717, -37.831348450981295 ] ] } },
{ "type": "Feature", "properties": { "LATITUDE": -32.4900207329, "LONGITUDE": 137.77002966200001, "POP_MAX": 13897, "NAME_EN": "Port Augusta" }, "geometry": { "type": "MultiPoint", "coordinates": [ [ 137.770029662222555, -32.490020732860955 ] ] } },
{ "type": "Feature", "properties": { "LATITUDE": -38.379997132600003, "LONGITUDE": 142.47000117900001, "POP_MAX": 29928, "NAME_EN": "Warrnambool" }, "geometry": { "type": "MultiPoint", "coordinates": [ [ 142.470001179168321, -38.379997132624112 ] ] } },
{ "type": "Feature", "properties": { "LATITUDE": -34.185007712000001, "LONGITUDE": 142.151364298, "POP_MAX": 47867, "NAME_EN": "Mildura" }, "geometry": { "type": "MultiPoint", "coordinates": [ [ 142.151364297656642, -34.185007712034349 ] ] } },
{ "type": "Feature", "properties": { "LATITUDE": -19.916731344799999, "LONGITUDE": 138.11667517000001, "POP_MAX": 187, "NAME_EN": "Camooweal" }, "geometry": { "type": "MultiPoint", "coordinates": [ [ 138.116675170036387, -19.916731344789866 ] ] } },
{ "type": "Feature", "properties": { "LATITUDE": -26.616632467900001, "LONGITUDE": 144.25004756600001, "POP_MAX": 560, "NAME_EN": "Quilpie" }, "geometry": { "type": "MultiPoint", "coordinates": [ [ 144.250047565894192, -26.616632467863496 ] ] } },
{ "type": "Feature", "properties": { "LATITUDE": -26.400004863700001, "LONGITUDE": 146.250028848, "POP_MAX": 1900, "NAME_EN": "Charleville" }, "geometry": { "type": "MultiPoint", "coordinates": [ [ 146.250028848454235, -26.400004863695926 ] ] } },
{ "type": "Feature", "properties": { "LATITUDE": -20.850007712, "LONGITUDE": 144.20002477899999, "POP_MAX": 421, "NAME_EN": "Hughenden" }, "geometry": { "type": "MultiPoint", "coordinates": [ [ 144.200024779435694, -20.85000771198105 ] ] } },
{ "type": "Feature", "properties": { "LATITUDE": -26.8000321261, "LONGITUDE": 153.13332963, "POP_MAX": 38706, "NAME_EN": "Caloundra" }, "geometry": { "type": "MultiPoint", "coordinates": [ [ 153.133329629731861, -26.800032126067379 ] ] } },
{ "type": "Feature", "properties": { "LATITUDE": -26.559374980899999, "LONGITUDE": 148.79070064199999, "POP_MAX": 5496, "NAME_EN": "Roma" }, "geometry": { "type": "MultiPoint", "coordinates": [ [ 148.790700642084289, -26.559374980884058 ] ] } },
{ "type": "Feature", "properties": { "LATITUDE": -27.564533265400001, "LONGITUDE": 151.955520385, "POP_MAX": 92800, "NAME_EN": "Toowoomba" }, "geometry": { "type": "MultiPoint", "coordinates": [ [ 151.955520384935653, -27.564533265393266 ] ] } },
{ "type": "Feature", "properties": { "LATITUDE": -18.300034160500001, "LONGITUDE": 143.53329545, "POP_MAX": 818, "NAME_EN": "Georgetown" }, "geometry": { "type": "MultiPoint", "coordinates": [ [ 143.533295450006108, -18.30003416053853 ] ] } },
{ "type": "Feature", "properties": { "LATITUDE": -27.9999588839, "LONGITUDE": 143.816689005, "POP_MAX": 203, "NAME_EN": "Thargomindah" }, "geometry": { "type": "MultiPoint", "coordinates": [ [ 143.816689004694467, -27.999958883884688 ] ] } },
{ "type": "Feature", "properties": { "LATITUDE": -12.6666312471, "LONGITUDE": 141.86662715599999, "POP_MAX": 2830, "NAME_EN": "Weipa" }, "geometry": { "type": "MultiPoint", "coordinates": [ [ 141.866627155728452, -12.666631247104533 ] ] } },
{ "type": "Feature", "properties": { "LATITUDE": -17.483339824600002, "LONGITUDE": 140.83340856800001, "POP_MAX": 173, "NAME_EN": "Karumba" }, "geometry": { "type": "MultiPoint", "coordinates": [ [ 140.833408568484856, -17.483339824597806 ] ] } },
{ "type": "Feature", "properties": { "LATITUDE": -20.699991029, "LONGITUDE": 140.49999222700001, "POP_MAX": 1202, "NAME_EN": "Cloncurry" }, "geometry": { "type": "MultiPoint", "coordinates": [ [ 140.499992227337543, -20.69999102903779 ] ] } },
{ "type": "Feature", "properties": { "LATITUDE": -25.549100729599999, "LONGITUDE": 152.720900024, "POP_MAX": 20678, "NAME_EN": "Maryborough" }, "geometry": { "type": "MultiPoint", "coordinates": [ [ 152.720900023610625, -25.549100729578015 ] ] } },
{ "type": "Feature", "properties": { "LATITUDE": -24.8790641085, "LONGITUDE": 152.35089676800001, "POP_MAX": 52472, "NAME_EN": "Bundaberg" }, "geometry": { "type": "MultiPoint", "coordinates": [ [ 152.350896768400503, -24.879064108481487 ] ] } },
{ "type": "Feature", "properties": { "LATITUDE": -23.853338603899999, "LONGITUDE": 151.24672644, "POP_MAX": 30489, "NAME_EN": "Gladstone" }, "geometry": { "type": "MultiPoint", "coordinates": [ [ 151.246726439620147, -23.853338603920179 ] ] } },
{ "type": "Feature", "properties": { "LATITUDE": -20.001325664500001, "LONGITUDE": 148.208668985, "POP_MAX": 10983, "NAME_EN": "Bowen" }, "geometry": { "type": "MultiPoint", "coordinates": [ [ 148.208668985180907, -20.001325664451656 ] ] } },
{ "type": "Feature", "properties": { "LATITUDE": -17.531347230200002, "LONGITUDE": 146.03867224000001, "POP_MAX": 10143, "NAME_EN": "Innisfail" }, "geometry": { "type": "MultiPoint", "coordinates": [ [ 146.038672240380492, -17.5313472301969 ] ] } },
{ "type": "Feature", "properties": { "LATITUDE": -21.143891582399998, "LONGITUDE": 149.15000687599999, "POP_MAX": 75922, "NAME_EN": "Mackay" }, "geometry": { "type": "MultiPoint", "coordinates": [ [ 149.150006875809595, -21.143891582424942 ] ] } },
{ "type": "Feature", "properties": { "LATITUDE": -41.066603170999997, "LONGITUDE": 145.91666418400001, "POP_MAX": 19972, "NAME_EN": "Burnie" }, "geometry": { "type": "MultiPoint", "coordinates": [ [ 145.916664183739499, -41.066603171046324 ] ] } },
{ "type": "Feature", "properties": { "LATITUDE": -41.449835592900001, "LONGITUDE": 147.130181843, "POP_MAX": 72458, "NAME_EN": "Launceston" }, "geometry": { "type": "MultiPoint", "coordinates": [ [ 147.130181843249488, -41.449835592922796 ] ] } },
{ "type": "Feature", "properties": { "LATITUDE": -2.5812843228700002, "LONGITUDE": 150.81297647700001, "POP_MAX": 19728, "NAME_EN": "Kavieng" }, "geometry": { "type": "MultiPoint", "coordinates": [ [ 150.812976476799236, -2.581284322871966 ] ] } },
{ "type": "Feature", "properties": { "LATITUDE": 6.9166436960100004, "LONGITUDE": 158.149974324, "POP_MAX": 4645, "NAME_EN": "Palikir" }, "geometry": { "type": "MultiPoint", "coordinates": [ [ 158.149974323762308, 6.916643696007725 ] ] } },
{ "type": "Feature", "properties": { "LATITUDE": 13.470016295300001, "LONGITUDE": 144.75001704799999, "POP_MAX": 122411, "NAME_EN": "Hagåtña" }, "geometry": { "type": "MultiPoint", "coordinates": [ [ 144.750017048318, 13.470016295317805 ] ] } },
{ "type": "Feature", "properties": { "LATITUDE": -8.5166519990400005, "LONGITUDE": 179.216647094, "POP_MAX": 4749, "NAME_EN": "Funafuti" }, "geometry": { "type": "MultiPoint", "coordinates": [ [ 179.216647094028872, -8.516651999041073 ] ] } },
{ "type": "Feature", "properties": { "LATITUDE": 7.4873961729799996, "LONGITUDE": 134.62654846699999, "POP_MAX": 7026, "NAME_EN": "Melekeok" }, "geometry": { "type": "MultiPoint", "coordinates": [ [ 134.626548466992176, 7.487396172977981 ] ] } },
{ "type": "Feature", "properties": { "LATITUDE": -21.250034974399998, "LONGITUDE": -159.750001263, "POP_MAX": 5445, "NAME_EN": "Avarua" }, "geometry": { "type": "MultiPoint", "coordinates": [ [ -159.785436712347519, -21.196225588984824 ] ] } },
{ "type": "Feature", "properties": { "LATITUDE": 19.699997781299999, "LONGITUDE": -155.09002730500001, "POP_MAX": 52391, "NAME_EN": "Hilo" }, "geometry": { "type": "MultiPoint", "coordinates": [ [ -155.090027305094907, 19.699997781345246 ] ] } },
{ "type": "Feature", "properties": { "LATITUDE": -4.2054903852500001, "LONGITUDE": 152.143430725, "POP_MAX": 8074, "NAME_EN": "Rabaul" }, "geometry": { "type": "MultiPoint", "coordinates": [ [ 152.143430725242979, -4.205490385246037 ] ] } },
{ "type": "Feature", "properties": { "LATITUDE": -14.4666247367, "LONGITUDE": 132.266592976, "POP_MAX": 10141, "NAME_EN": "Katherine" }, "geometry": { "type": "MultiPoint", "coordinates": [ [ 132.266592976002698, -14.466624736695053 ] ] } },
{ "type": "Feature", "properties": { "LATITUDE": -33.656409486100003, "LONGITUDE": 115.348659219, "POP_MAX": 10214, "NAME_EN": "Busselton" }, "geometry": { "type": "MultiPoint", "coordinates": [ [ 115.348659219424349, -33.656409486120879 ] ] } },
{ "type": "Feature", "properties": { "LATITUDE": -30.735399150799999, "LONGITUDE": 121.460017455, "POP_MAX": 36852, "NAME_EN": "Kalgoorlie" }, "geometry": { "type": "MultiPoint", "coordinates": [ [ 121.460017455125922, -30.73539915082273 ] ] } },
{ "type": "Feature", "properties": { "LATITUDE": -35.016946595500002, "LONGITUDE": 117.89160477599999, "POP_MAX": 26445, "NAME_EN": "Albany" }, "geometry": { "type": "MultiPoint", "coordinates": [ [ 117.891604776075155, -35.016946595501224 ] ] } },
{ "type": "Feature", "properties": { "LATITUDE": -20.7303767712, "LONGITUDE": 116.870013386, "POP_MAX": 16796, "NAME_EN": "Karratha" }, "geometry": { "type": "MultiPoint", "coordinates": [ [ 116.870013386097412, -20.730376771225394 ] ] } },
{ "type": "Feature", "properties": { "LATITUDE": -28.7666304334, "LONGITUDE": 114.599971068, "POP_MAX": 27258, "NAME_EN": "Geraldton" }, "geometry": { "type": "MultiPoint", "coordinates": [ [ 114.599971068379887, -28.766630433366913 ] ] } },
{ "type": "Feature", "properties": { "LATITUDE": -34.290014222499998, "LONGITUDE": 146.04001582800001, "POP_MAX": 15455, "NAME_EN": "Griffith" }, "geometry": { "type": "MultiPoint", "coordinates": [ [ 146.040015827620209, -34.290014222451475 ] ] } },
{ "type": "Feature", "properties": { "LATITUDE": -33.279998353300002, "LONGITUDE": 149.099984089, "POP_MAX": 39329, "NAME_EN": "Orange" }, "geometry": { "type": "MultiPoint", "coordinates": [ [ 149.099984089351096, -33.27999835330678 ] ] } },
{ "type": "Feature", "properties": { "LATITUDE": -32.259957256299998, "LONGITUDE": 148.59732743199999, "POP_MAX": 31574, "NAME_EN": "Dubbo" }, "geometry": { "type": "MultiPoint", "coordinates": [ [ 148.597327432447969, -32.259957256297412 ] ] } },
{ "type": "Feature", "properties": { "LATITUDE": -30.512311992600001, "LONGITUDE": 151.667475951, "POP_MAX": 22673, "NAME_EN": "Armidale" }, "geometry": { "type": "MultiPoint", "coordinates": [ [ 151.667475951340634, -30.512311992618606 ] ] } },
{ "type": "Feature", "properties": { "LATITUDE": -31.949950339000001, "LONGITUDE": 141.43311356500001, "POP_MAX": 17395, "NAME_EN": "Broken Hill" }, "geometry": { "type": "MultiPoint", "coordinates": [ [ 141.433113565231793, -31.949950338978624 ] ] } },
{ "type": "Feature", "properties": { "LATITUDE": -33.025026836400002, "LONGITUDE": 137.561411905, "POP_MAX": 22559, "NAME_EN": "Whyalla" }, "geometry": { "type": "MultiPoint", "coordinates": [ [ 137.561411905060368, -33.025026836378743 ] ] } },
{ "type": "Feature", "properties": { "LATITUDE": -38.339999573999997, "LONGITUDE": 141.59000321400001, "POP_MAX": 11808, "NAME_EN": "Portland" }, "geometry": { "type": "MultiPoint", "coordinates": [ [ 141.590003213670002, -38.33999957403023 ] ] } },
{ "type": "Feature", "properties": { "LATITUDE": -36.7599926567, "LONGITUDE": 144.28001989699999, "POP_MAX": 81657, "NAME_EN": "Bendigo" }, "geometry": { "type": "MultiPoint", "coordinates": [ [ 144.280019896623457, -36.759992656706117 ] ] } },
{ "type": "Feature", "properties": { "LATITUDE": -36.360017070799998, "LONGITUDE": 146.299999958, "POP_MAX": 14022, "NAME_EN": "Wangaratta" }, "geometry": { "type": "MultiPoint", "coordinates": [ [ 146.299999958480498, -36.360017070767071 ] ] } },
{ "type": "Feature", "properties": { "LATITUDE": -25.4332421684, "LONGITUDE": 142.65019689900001, "POP_MAX": 158, "NAME_EN": "Windorah" }, "geometry": { "type": "MultiPoint", "coordinates": [ [ 142.650196898570016, -25.433242168379593 ] ] } },
{ "type": "Feature", "properties": { "LATITUDE": -20.723865540799999, "LONGITUDE": 139.49002803499999, "POP_MAX": 33200, "NAME_EN": "Mount Isa" }, "geometry": { "type": "MultiPoint", "coordinates": [ [ 139.490028034625198, -20.723865540756549 ] ] } },
{ "type": "Feature", "properties": { "LATITUDE": -23.363911113699999, "LONGITUDE": 150.520000772, "POP_MAX": 65850, "NAME_EN": "Rockhampton" }, "geometry": { "type": "MultiPoint", "coordinates": [ [ 150.520000772299682, -23.363911113683855 ] ] } },
{ "type": "Feature", "properties": { "LATITUDE": -16.8878398586, "LONGITUDE": 145.763330946, "POP_MAX": 154225, "NAME_EN": "Cairns" }, "geometry": { "type": "MultiPoint", "coordinates": [ [ 145.763330946074234, -16.887839858605503 ] ] } },
{ "type": "Feature", "properties": { "LATITUDE": -28.081504293999998, "LONGITUDE": 153.448245808, "POP_MAX": 527660, "NAME_EN": "Gold Coast" }, "geometry": { "type": "MultiPoint", "coordinates": [ [ 153.448245808118486, -28.081504294041224 ] ] } },
{ "type": "Feature", "properties": { "LATITUDE": -41.192667565400001, "LONGITUDE": 146.33110174399999, "POP_MAX": 19317, "NAME_EN": "Devonport" }, "geometry": { "type": "MultiPoint", "coordinates": [ [ 146.331101744179591, -41.192667565437318 ] ] } },
{ "type": "Feature", "properties": { "LATITUDE": -14.2766104952, "LONGITUDE": -170.70664514399999, "POP_MAX": 12576, "NAME_EN": "Pago Pago" }, "geometry": { "type": "MultiPoint", "coordinates": [ [ -170.706645143699092, -14.276610495157797 ] ] } },
{ "type": "Feature", "properties": { "LATITUDE": -17.533362611099999, "LONGITUDE": -149.566669354, "POP_MAX": 131695, "NAME_EN": "Papeete" }, "geometry": { "type": "MultiPoint", "coordinates": [ [ -149.566669354226519, -17.533362611056361 ] ] } },
{ "type": "Feature", "properties": { "LATITUDE": -17.733350404, "LONGITUDE": 168.316640584, "POP_MAX": 44040, "NAME_EN": "Port Vila" }, "geometry": { "type": "MultiPoint", "coordinates": [ [ 168.316640583568642, -17.733350404025828 ] ] } },
{ "type": "Feature", "properties": { "LATITUDE": -9.4379942950900002, "LONGITUDE": 159.94976573400001, "POP_MAX": 76328, "NAME_EN": "Honiara" }, "geometry": { "type": "MultiPoint", "coordinates": [ [ 159.949765733605659, -9.437994295089595 ] ] } },
{ "type": "Feature", "properties": { "LATITUDE": -18.133015931399999, "LONGITUDE": 178.441707315, "POP_MAX": 175399, "NAME_EN": "Suva" }, "geometry": { "type": "MultiPoint", "coordinates": [ [ 178.441707315379858, -18.133015931371233 ] ] } },
{ "type": "Feature", "properties": { "LATITUDE": -12.425353984699999, "LONGITUDE": 130.850038614, "POP_MAX": 93080, "NAME_EN": "Darwin" }, "geometry": { "type": "MultiPoint", "coordinates": [ [ 130.850038614017762, -12.425353984733761 ] ] } },
{ "type": "Feature", "properties": { "LATITUDE": -23.700996481499999, "LONGITUDE": 133.880034545, "POP_MAX": 27710, "NAME_EN": "Alice Springs" }, "geometry": { "type": "MultiPoint", "coordinates": [ [ 133.880034545019498, -23.700996481523703 ] ] } },
{ "type": "Feature", "properties": { "LATITUDE": -35.283028545400001, "LONGITUDE": 149.12902624399999, "POP_MAX": 327700, "NAME_EN": "Canberra" }, "geometry": { "type": "MultiPoint", "coordinates": [ [ 149.129026244299212, -35.283028545372076 ] ] } },
{ "type": "Feature", "properties": { "LATITUDE": -32.8453478813, "LONGITUDE": 151.815012166, "POP_MAX": 1134616, "NAME_EN": "Newcastle" }, "geometry": { "type": "MultiPoint", "coordinates": [ [ 151.815012165533972, -32.845347881299858 ] ] } },
{ "type": "Feature", "properties": { "LATITUDE": -34.934987773899998, "LONGITUDE": 138.60000484099999, "POP_MAX": 1145000, "NAME_EN": "Adelaide" }, "geometry": { "type": "MultiPoint", "coordinates": [ [ 138.598058982649263, -34.933041915273463 ] ] } },
{ "type": "Feature", "properties": { "LATITUDE": -19.2499503389, "LONGITUDE": 146.76999711, "POP_MAX": 138954, "NAME_EN": "Townsville" }, "geometry": { "type": "MultiPoint", "coordinates": [ [ 146.769997110175041, -19.249950338927817 ] ] } },
{ "type": "Feature", "properties": { "LATITUDE": -27.455030905400001, "LONGITUDE": 153.03509273200001, "POP_MAX": 1860000, "NAME_EN": "Brisbane" }, "geometry": { "type": "MultiPoint", "coordinates": [ [ 153.033146873332043, -27.453085046753756 ] ] } },
{ "type": "Feature", "properties": { "LATITUDE": -42.850008525900002, "LONGITUDE": 147.29502966199999, "POP_MAX": 80870, "NAME_EN": "Hobart" }, "geometry": { "type": "MultiPoint", "coordinates": [ [ 147.295029662260731, -42.850008525871147 ] ] } },
{ "type": "Feature", "properties": { "LATITUDE": -13.8415450424, "LONGITUDE": -171.73864160900001, "POP_MAX": 61916, "NAME_EN": "Apia" }, "geometry": { "type": "MultiPoint", "coordinates": [ [ -171.73864160860316, -13.841545042448445 ] ] } },
{ "type": "Feature", "properties": { "LATITUDE": -31.955014629299999, "LONGITUDE": 115.83999873800001, "POP_MAX": 1532000, "NAME_EN": "Perth" }, "geometry": { "type": "MultiPoint", "coordinates": [ [ 115.838052879042721, -31.953068770730169 ] ] } },
{ "type": "Feature", "properties": { "LATITUDE": -37.820031312300003, "LONGITUDE": 144.975016235, "POP_MAX": 4170000, "NAME_EN": "Melbourne" }, "geometry": { "type": "MultiPoint", "coordinates": [ [ 144.973070375904058, -37.818085453696312 ] ] } },
{ "type": "Feature", "properties": { "LATITUDE": -33.9200109672, "LONGITUDE": 151.185179809, "POP_MAX": 4630000, "NAME_EN": "Sydney" }, "geometry": { "type": "MultiPoint", "coordinates": [ [ 151.183233950147496, -33.918065108628753 ] ] } },
{ "type": "Feature", "properties": { "LATITUDE": -42.471645255, "LONGITUDE": 171.22314302151, "POP_MAX": 10100, "NAME_EN": "Greymouth" }, "geometry": { "type": "MultiPoint", "coordinates": [ [ 171.223143021511589, -42.471645254995799 ] ] } },
{ "type": "Feature", "properties": { "LATITUDE": -41.135477387900004, "LONGITUDE": 175.02904127676001, "POP_MAX": 39200, "NAME_EN": "Upper Hutt" }, "geometry": { "type": "MultiPoint", "coordinates": [ [ 175.029041276760495, -41.135477387900224 ] ] } },
{ "type": "Feature", "properties": { "LATITUDE": -40.943919866599998, "LONGITUDE": 175.6456460606, "POP_MAX": 20200, "NAME_EN": "Masterton" }, "geometry": { "type": "MultiPoint", "coordinates": [ [ 175.645646060600939, -40.943919866596715 ] ] } },
{ "type": "Feature", "properties": { "LATITUDE": -40.612361339419998, "LONGITUDE": 175.27724597783001, "POP_MAX": 19550, "NAME_EN": "Levin" }, "geometry": { "type": "MultiPoint", "coordinates": [ [ 175.277245977829125, -40.612361339416459 ] ] } },
{ "type": "Feature", "properties": { "LATITUDE": -36.852449267799997, "LONGITUDE": 174.55427880292001, "POP_MAX": 208100, "NAME_EN": "Waitakere City" }, "geometry": { "type": "MultiPoint", "coordinates": [ [ 174.554278802919157, -36.852449267795514 ] ] } },
{ "type": "Feature", "properties": { "LATITUDE": -36.79126845687, "LONGITUDE": 174.77583875022, "POP_MAX": 205605, "NAME_EN": "North Shore City" }, "geometry": { "type": "MultiPoint", "coordinates": [ [ 174.77583875021682, -36.791268456871919 ] ] } },
{ "type": "Feature", "properties": { "LATITUDE": -37.957386472659998, "LONGITUDE": 176.98275778947001, "POP_MAX": 18700, "NAME_EN": "Whakatane" }, "geometry": { "type": "MultiPoint", "coordinates": [ [ 176.982757789473538, -37.957386472664943 ] ] } },
{ "type": "Feature", "properties": { "LATITUDE": -43.898269121250003, "LONGITUDE": 171.74864193414999, "POP_MAX": 17700, "NAME_EN": "Ashburton" }, "geometry": { "type": "MultiPoint", "coordinates": [ [ 171.748641934153738, -43.898269121246479 ] ] } },
{ "type": "Feature", "properties": { "LATITUDE": -43.381311384029999, "LONGITUDE": 172.65103568556, "POP_MAX": 10200, "NAME_EN": "Kaiapoi" }, "geometry": { "type": "MultiPoint", "coordinates": [ [ 172.651035685560885, -43.381311384029175 ] ] } },
{ "type": "Feature", "properties": { "LATITUDE": -39.055639279380003, "LONGITUDE": 174.07481249334, "POP_MAX": 52500, "NAME_EN": "New Plymouth" }, "geometry": { "type": "MultiPoint", "coordinates": [ [ 174.074812493336623, -39.055639279375796 ] ] } },
{ "type": "Feature", "properties": { "LATITUDE": -42.707239343799998, "LONGITUDE": 171.00995404506, "POP_MAX": 3078, "NAME_EN": "Hokitika" }, "geometry": { "type": "MultiPoint", "coordinates": [ [ 171.009954045056048, -42.707239343797674 ] ] } },
{ "type": "Feature", "properties": { "LATITUDE": -45.109197361729997, "LONGITUDE": 170.99479036405, "POP_MAX": 13000, "NAME_EN": "Oamaru" }, "geometry": { "type": "MultiPoint", "coordinates": [ [ 170.994790364048185, -45.10919736173215 ] ] } },
{ "type": "Feature", "properties": { "LATITUDE": -40.352691038730001, "LONGITUDE": 175.60721077119001, "POP_MAX": 82400, "NAME_EN": "Palmerston North" }, "geometry": { "type": "MultiPoint", "coordinates": [ [ 175.607210771189159, -40.352691038728615 ] ] } },
{ "type": "Feature", "properties": { "LATITUDE": -39.932626128519999, "LONGITUDE": 175.03929997116001, "POP_MAX": 43200, "NAME_EN": "Whanganui" }, "geometry": { "type": "MultiPoint", "coordinates": [ [ 175.039299971156623, -39.932626128522827 ] ] } },
{ "type": "Feature", "properties": { "LATITUDE": -39.638203146670001, "LONGITUDE": 176.83679962319999, "POP_MAX": 66100, "NAME_EN": "Hastings" }, "geometry": { "type": "MultiPoint", "coordinates": [ [ 176.836799623200847, -39.638203146667969 ] ] } },
{ "type": "Feature", "properties": { "LATITUDE": -38.663333189299998, "LONGITUDE": 178.01808132, "POP_MAX": 34300, "NAME_EN": "Gisborne" }, "geometry": { "type": "MultiPoint", "coordinates": [ [ 178.018081320001727, -38.663333189300744 ] ] } },
{ "type": "Feature", "properties": { "LATITUDE": -38.131737857970002, "LONGITUDE": 176.24826312236999, "POP_MAX": 56200, "NAME_EN": "Rotorua" }, "geometry": { "type": "MultiPoint", "coordinates": [ [ 176.248263122368826, -38.131737857967678 ] ] } },
{ "type": "Feature", "properties": { "LATITUDE": -38.693010679270003, "LONGITUDE": 176.07705278527001, "POP_MAX": 22600, "NAME_EN": "Taupo" }, "geometry": { "type": "MultiPoint", "coordinates": [ [ 176.077052785274873, -38.693010679273293 ] ] } },
{ "type": "Feature", "properties": { "LATITUDE": -37.69641642789, "LONGITUDE": 176.15362937436001, "POP_MAX": 121500, "NAME_EN": "Tauranga" }, "geometry": { "type": "MultiPoint", "coordinates": [ [ 176.153629374364613, -37.696416427890711 ] ] } },
{ "type": "Feature", "properties": { "LATITUDE": -44.397154226410002, "LONGITUDE": 171.24246897821999, "POP_MAX": 27200, "NAME_EN": "Timaru" }, "geometry": { "type": "MultiPoint", "coordinates": [ [ 171.242468978224679, -44.397154226405426 ] ] } },
{ "type": "Feature", "properties": { "LATITUDE": -41.292591690910001, "LONGITUDE": 173.24744801662999, "POP_MAX": 60800, "NAME_EN": "Nelson" }, "geometry": { "type": "MultiPoint", "coordinates": [ [ 173.247448016630671, -41.292591690914428 ] ] } },
{ "type": "Feature", "properties": { "LATITUDE": -35.725571144900002, "LONGITUDE": 174.32297077497, "POP_MAX": 52200, "NAME_EN": "Whangarei" }, "geometry": { "type": "MultiPoint", "coordinates": [ [ 174.322970774973612, -35.725571144896328 ] ] } },
{ "type": "Feature", "properties": { "LATITUDE": -45.022671541119998, "LONGITUDE": 168.72508130689999, "POP_MAX": 16600, "NAME_EN": "Queenstown" }, "geometry": { "type": "MultiPoint", "coordinates": [ [ 168.725081306903746, -45.02267154112397 ] ] } },
{ "type": "Feature", "properties": { "LATITUDE": -46.409436588730003, "LONGITUDE": 168.36500577554, "POP_MAX": 49200, "NAME_EN": "Invercargill" }, "geometry": { "type": "MultiPoint", "coordinates": [ [ 168.365005775542386, -46.409436588725399 ] ] } },
{ "type": "Feature", "properties": { "LATITUDE": -36.999970221600002, "LONGITUDE": 174.88497083403999, "POP_MAX": 375600, "NAME_EN": "Manukau City" }, "geometry": { "type": "MultiPoint", "coordinates": [ [ 174.884970834041837, -36.999970221600655 ] ] } },
{ "type": "Feature", "properties": { "LATITUDE": -37.77826935905, "LONGITUDE": 175.28957807351, "POP_MAX": 148200, "NAME_EN": "Hamilton" }, "geometry": { "type": "MultiPoint", "coordinates": [ [ 175.289578073505936, -37.778269359045439 ] ] } },
{ "type": "Feature", "properties": { "LATITUDE": -41.513517239309998, "LONGITUDE": 173.95495752080001, "POP_MAX": 30300, "NAME_EN": "Blenheim" }, "geometry": { "type": "MultiPoint", "coordinates": [ [ 173.954957520798928, -41.513517239312769 ] ] } },
{ "type": "Feature", "properties": { "LATITUDE": -45.885423097900002, "LONGITUDE": 170.49101574541999, "POP_MAX": 117700, "NAME_EN": "Dunedin" }, "geometry": { "type": "MultiPoint", "coordinates": [ [ 170.491015745421379, -45.885423097896272 ] ] } },
{ "type": "Feature", "properties": { "LATITUDE": -41.299987853689998, "LONGITUDE": 174.78326585927999, "POP_MAX": 393400, "NAME_EN": "Wellington" }, "geometry": { "type": "MultiPoint", "coordinates": [ [ 174.783265859281897, -41.299987853691732 ] ] } },
{ "type": "Feature", "properties": { "LATITUDE": -43.535021595389999, "LONGITUDE": 172.63002315616001, "POP_MAX": 363200, "NAME_EN": "Christchurch" }, "geometry": { "type": "MultiPoint", "coordinates": [ [ 172.63002315616427, -43.53502159538855 ] ] } },
{ "type": "Feature", "properties": { "LATITUDE": -36.848054894930002, "LONGITUDE": 174.76302698708, "POP_MAX": 1377200, "NAME_EN": "Auckland" }, "geometry": { "type": "MultiPoint", "coordinates": [ [ 174.76302698707957, -36.848054894932005 ] ] } },
{ "type": "Feature", "properties": { "LATITUDE": -41.203744898719997, "LONGITUDE": 174.91231187929, "POP_MAX": 102400, "NAME_EN": "Lower Hutt" }, "geometry": { "type": "MultiPoint", "coordinates": [ [ 174.912311879287643, -41.203744898723414 ] ] } },
{ "type": "Feature", "properties": { "LATITUDE": -40.90344212219, "LONGITUDE": 174.99893053875999, "POP_MAX": 25263, "NAME_EN": "Paraparaumu" }, "geometry": { "type": "MultiPoint", "coordinates": [ [ 174.99893053875914, -40.903442122192033 ] ] } },
{ "type": "Feature", "properties": { "LATITUDE": -41.121891967570001, "LONGITUDE": 174.85235344673001, "POP_MAX": 52500, "NAME_EN": "Porirua" }, "geometry": { "type": "MultiPoint", "coordinates": [ [ 174.85235344673103, -41.121891967568686 ] ] } },
{ "type": "Feature", "properties": { "LATITUDE": -37.138423913090001, "LONGITUDE": 175.58531627259001, "POP_MAX": 6756, "NAME_EN": "Thames" }, "geometry": { "type": "MultiPoint", "coordinates": [ [ 175.585316272591058, -37.138423913088843 ] ] } },
{ "type": "Feature", "properties": { "LATITUDE": -37.201492447569997, "LONGITUDE": 174.90330650954999, "POP_MAX": 26300, "NAME_EN": "Pukekohe" }, "geometry": { "type": "MultiPoint", "coordinates": [ [ 174.90330650954624, -37.201492447566473 ] ] } },
{ "type": "Feature", "properties": { "LATITUDE": -39.579467092480002, "LONGITUDE": 174.27797487255, "POP_MAX": 11100, "NAME_EN": "Hawera" }, "geometry": { "type": "MultiPoint", "coordinates": [ [ 174.277974872554324, -39.579467092478303 ] ] } },
{ "type": "Feature", "properties": { "LATITUDE": -35.109925695980003, "LONGITUDE": 173.27268471431, "POP_MAX": 5202, "NAME_EN": "Kaitaia" }, "geometry": { "type": "MultiPoint", "coordinates": [ [ 173.272684714308042, -35.109925695976777 ] ] } },
{ "type": "Feature", "properties": { "LATITUDE": -46.094681895800001, "LONGITUDE": 168.96038140597, "POP_MAX": 9750, "NAME_EN": "Gore" }, "geometry": { "type": "MultiPoint", "coordinates": [ [ 168.960381405971816, -46.094681895804882 ] ] } },
{ "type": "Feature", "properties": { "LATITUDE": -45.407364844409997, "LONGITUDE": 167.75845853523001, "POP_MAX": 1857, "NAME_EN": "Te Anau" }, "geometry": { "type": "MultiPoint", "coordinates": [ [ 167.758458535227561, -45.407364844407319 ] ] } },
{ "type": "Feature", "properties": { "LATITUDE": -46.887649573650002, "LONGITUDE": 168.16659365149999, "POP_MAX": 310, "NAME_EN": "Oban" }, "geometry": { "type": "MultiPoint", "coordinates": [ [ 168.16659365149755, -46.887649573653206 ] ] } },
{ "type": "Feature", "properties": { "LATITUDE": -38.224514828709999, "LONGITUDE": 175.87047084125999, "POP_MAX": 13350, "NAME_EN": "Tokoroa" }, "geometry": { "type": "MultiPoint", "coordinates": [ [ 175.870470841258452, -38.22451482870563 ] ] } },
{ "type": "Feature", "properties": { "LATITUDE": -44.69801403612, "LONGITUDE": 169.14485222738, "POP_MAX": 5037, "NAME_EN": "Wanaka" }, "geometry": { "type": "MultiPoint", "coordinates": [ [ 169.144852227375736, -44.698014036116689 ] ] } },
{ "type": "Feature", "properties": { "LATITUDE": -41.280522638679997, "LONGITUDE": 174.01655610661001, "POP_MAX": 2928, "NAME_EN": "Picton" }, "geometry": { "type": "MultiPoint", "coordinates": [ [ 174.016556106607425, -41.280522638683671 ] ] } },
{ "type": "Feature", "properties": { "LATITUDE": -44.026253359659997, "LONGITUDE": -176.36957872138001, "POP_MAX": 300, "NAME_EN": "Waitangi" }, "geometry": { "type": "MultiPoint", "coordinates": [ [ -176.369578721379838, -44.026253359663471 ] ] } },
{ "type": "Feature", "properties": { "LATITUDE": -19.06598767234, "LONGITUDE": -169.91362542802, "POP_MAX": 581, "NAME_EN": "Alofi" }, "geometry": { "type": "MultiPoint", "coordinates": [ [ -169.913625428020936, -19.065987672336565 ] ] } },
{ "type": "Feature", "properties": { "LATITUDE": -37.889428424720002, "LONGITUDE": 175.4702734478, "POP_MAX": 15192, "NAME_EN": "Cambridge" }, "geometry": { "type": "MultiPoint", "coordinates": [ [ 175.470273447801759, -37.889428424719462 ] ] } },
{ "type": "Feature", "properties": { "LATITUDE": -35.228480924430002, "LONGITUDE": 173.95067145994, "POP_MAX": 5856, "NAME_EN": "Kerikeri" }, "geometry": { "type": "MultiPoint", "coordinates": [ [ 173.950671459942612, -35.228480924428112 ] ] } },
{ "type": "Feature", "properties": { "LATITUDE": -38.988888136649997, "LONGITUDE": 175.81424143638, "POP_MAX": 3240, "NAME_EN": "Turangi" }, "geometry": { "type": "MultiPoint", "coordinates": [ [ 175.814241436378239, -38.988888136653394 ] ] } }
]
}
